{
"type": "FeatureCollection",
"name": "tamepere_20m",
"crs": { "type": "name", "properties": { "name": "urn:ogc:def:crs:EPSG::3067" } },
"features": [
{ "type": "Feature", "properties": { "id": 9, "gml_id": 28023764, "natcode": "418", "namefin": "Lempäälä", "nameswe": "Lempäälä", "landarea": 268.47, "freshwarea": 37.47, "seawarea": null, "totalarea": 305.94 }, "geometry": { "type": "MultiPolygon", "coordinates": [ [ [ [ 325014.538000668166205, 6796004.594989807344973 ], [ 324589.446000688360073, 6796757.175989584997296 ], [ 324977.485000673797913, 6797413.834989757277071 ], [ 324745.436000685323961, 6797972.216989632695913 ], [ 324468.435000697267242, 6797998.402989498339593 ], [ 324453.4850006980123, 6798033.329989489167929 ], [ 324707.94700068840757, 6798537.720989600755274 ], [ 324647.738000692159403, 6798828.527989565394819 ], [ 324591.221000694669783, 6798932.819989535026252 ], [ 324376.551000704639591, 6799133.578989425674081 ], [ 324019.394000721687917, 6799588.185989237390459 ], [ 323786.299000732717104, 6799720.399989118799567 ], [ 323862.791000730241649, 6800020.083989148959517 ], [ 323822.00700073200278, 6800056.192989129573107 ], [ 323687.419000737369061, 6799849.5509890653193 ], [ 323579.47500074247364, 6799905.32098900899291 ], [ 323600.695000741747208, 6799965.060989019460976 ], [ 323294.600000756094232, 6800032.318988860584795 ], [ 323249.591000758460723, 6800139.653988833539188 ], [ 322743.78900078299921, 6800317.967988564632833 ], [ 322622.911000788677484, 6800325.934988501481712 ], [ 322475.446000795578584, 6800296.272988425567746 ], [ 322156.726000809343532, 6799736.822988267987967 ], [ 322224.785000806092285, 6799697.356988303363323 ], [ 322191.764000807423145, 6799641.014988288283348 ], [ 321775.244000827893615, 6799667.360988061875105 ], [ 321446.308000844554044, 6799625.172987882979214 ], [ 321343.352000849903561, 6799708.332987822592258 ], [ 321296.785000852774829, 6799821.289987793192267 ], [ 321359.393000849639066, 6799837.092987827956676 ], [ 321319.526000852347352, 6800059.72898780182004 ], [ 321414.570000847801566, 6800168.346987850964069 ], [ 321372.832000850292388, 6800235.220987827517092 ], [ 321224.188000858412124, 6800326.075987740419805 ], [ 321171.249000860727392, 6800295.921987711451948 ], [ 320999.229000869905576, 6800378.992987611331046 ], [ 320944.472000873298384, 6800498.141987577080727 ], [ 321068.018000867567025, 6800697.94398764334619 ], [ 321022.763000870123506, 6800779.792987613007426 ], [ 321108.954000866506249, 6801009.884987655095756 ], [ 320916.173000877024606, 6801141.612987543456256 ], [ 321020.942000872339122, 6801387.587987597100437 ], [ 321081.318000869068783, 6801363.512987631373107 ], [ 321127.737000867025927, 6801422.826987656764686 ], [ 321374.320000854786485, 6801575.439987790770829 ], [ 321315.713000858086161, 6801675.664987754076719 ], [ 321868.994000831851736, 6802181.529988047666848 ], [ 321842.310000834579114, 6802618.305988021194935 ], [ 320875.410000888514332, 6803837.52398744598031 ], [ 318262.335001039493363, 6804714.172985847108066 ], [ 315480.729001231491566, 6807577.388983882963657 ], [ 315399.677001239557285, 6808137.510983806103468 ], [ 315440.816001237661112, 6808292.657983828336 ], [ 315619.377001226646826, 6808636.140983944758773 ], [ 315623.495001226721797, 6808694.570983945392072 ], [ 315590.563001228962094, 6808704.393983921967447 ], [ 315581.01300122984685, 6808750.238983913324773 ], [ 315637.577001226367429, 6808845.584983950480819 ], [ 315703.783001221658196, 6808804.073983997106552 ], [ 316157.096001194848213, 6809698.585984283126891 ], [ 316044.748001202940941, 6809768.731984202750027 ], [ 315931.114001210255083, 6809730.237984125502408 ], [ 315868.381001215660945, 6809955.732984071597457 ], [ 316141.087001197098289, 6809965.917984263040125 ], [ 316260.888001189392526, 6810043.426984344609082 ], [ 316303.352001186402049, 6809988.459984372369945 ], [ 316350.373001183615997, 6810075.749984404072165 ], [ 316301.929001186741516, 6810061.587984371930361 ], [ 316366.403001182596199, 6810108.606984414160252 ], [ 316692.260001163755078, 6810736.279984616674483 ], [ 316806.541001156554557, 6810810.280984692275524 ], [ 316760.349001159775071, 6810865.176984659396112 ], [ 316782.79000115848612, 6810911.104984671808779 ], [ 316758.522001160075888, 6810931.941984656266868 ], [ 316827.448001156153623, 6811053.340984698385 ], [ 316663.237001167959534, 6811262.89598457980901 ], [ 316700.194001165684313, 6811299.19798460137099 ], [ 316920.21700115071144, 6811175.64998475741595 ], [ 317138.70300113823032, 6811591.57198488805443 ], [ 317045.756001144531183, 6811640.414984825067222 ], [ 317080.930001142434776, 6811703.238984847441316 ], [ 317116.453001140209381, 6811725.645984871312976 ], [ 317151.288001137436368, 6811616.316984897479415 ], [ 317226.14600113342749, 6811762.329984942451119 ], [ 318052.532001084124204, 6812526.436985464766622 ], [ 321139.304000906064175, 6812677.97298735100776 ], [ 321201.481000902538653, 6812645.978987388312817 ], [ 321198.414000902499538, 6812581.262987390160561 ], [ 321251.787000899668783, 6812584.570987419225276 ], [ 321296.152000897680409, 6812684.510987441055477 ], [ 321555.346000883961096, 6812697.219987588003278 ], [ 326191.567000673094299, 6815267.873989934101701 ], [ 327513.392000619089231, 6815227.075990546494722 ], [ 328225.163000591448508, 6815132.093990861438215 ], [ 328100.965000595082529, 6814736.064990816637874 ], [ 328023.828000597888604, 6814715.05199078284204 ], [ 327882.035000602365471, 6814332.11899072676897 ], [ 328114.746000593411736, 6814315.78899083007127 ], [ 328067.530000594968442, 6814195.567990813404322 ], [ 328330.022000585100614, 6814262.066990923136473 ], [ 328594.813000575290062, 6814257.029991039074957 ], [ 328860.658000565716065, 6814345.652991152368486 ], [ 329111.456000556820072, 6814474.495991255156696 ], [ 329550.492000541416928, 6814553.597991434857249 ], [ 330010.979000525723677, 6814720.752991621382535 ], [ 330333.566000514780171, 6814739.241991750895977 ], [ 330545.542000507703051, 6814802.079991833306849 ], [ 331188.318000486236997, 6814708.608992087654769 ], [ 331136.431000487762503, 6814681.121992070227861 ], [ 331274.050000483344775, 6814679.433992123231292 ], [ 331400.880000479170121, 6814636.106992171145976 ], [ 331426.942000478389673, 6814672.822992181405425 ], [ 333075.071000427415129, 6814435.397992792539299 ], [ 334112.119000397680793, 6814346.141993155702949 ], [ 335431.700000355951488, 6810681.627993645146489 ], [ 337790.157000290928409, 6804830.893994437530637 ], [ 336853.09700031124521, 6804453.267994169145823 ], [ 337216.918000301462598, 6803488.790994289331138 ], [ 336499.146000316657592, 6802687.391994085162878 ], [ 336429.930000318330713, 6802684.166994065977633 ], [ 336421.912000318290666, 6802631.683994064107537 ], [ 336705.112000311608426, 6802475.423994150944054 ], [ 336455.737000316847116, 6802198.204994080588222 ], [ 336575.204000313940924, 6802055.578994117677212 ], [ 336842.287000308046117, 6802353.195994194597006 ], [ 337054.173000303213485, 6802225.448994257487357 ], [ 336919.1450003060163, 6802073.099994217976928 ], [ 336968.180000304768328, 6802025.875994235277176 ], [ 337163.113000300887506, 6802237.995994290336967 ], [ 337193.868000299902633, 6802170.288994299247861 ], [ 337509.752000292472076, 6801883.578994394280016 ], [ 336318.170000317390077, 6800595.604994058609009 ], [ 336324.766000317176804, 6800548.41499406285584 ], [ 336250.231000318948645, 6800522.359994041733444 ], [ 336071.431000322801992, 6800355.241993988864124 ], [ 336123.838000321411528, 6800254.90399400703609 ], [ 335973.551000325009227, 6800219.191993960179389 ], [ 335860.206000327598304, 6800101.084993926808238 ], [ 335823.02300032810308, 6800009.707993916235864 ], [ 335800.022000328754075, 6799994.949993910267949 ], [ 335788.849000329093542, 6800021.889993906952441 ], [ 334831.926000350853428, 6798988.56299362052232 ], [ 333767.937000375706702, 6797546.108993293717504 ], [ 333924.106000371626578, 6797512.686993347480893 ], [ 333911.603000371833332, 6797456.048993342556059 ], [ 333724.534000376414042, 6797240.723993285559118 ], [ 333667.14900037785992, 6797190.007993265986443 ], [ 333531.940000381553546, 6797227.552993217483163 ], [ 333299.184000387205742, 6796909.661993145011365 ], [ 329838.52500048285583, 6793285.249991945922375 ], [ 329254.346000501362141, 6792944.759991721250117 ], [ 328844.117000514466781, 6792661.711991561576724 ], [ 327636.528000557562336, 6792948.990991055034101 ], [ 327518.146000562235713, 6793040.282991000451148 ], [ 327391.801000567153096, 6793212.054990945383906 ], [ 327365.60700056841597, 6793328.274990929290652 ], [ 327317.55100057029631, 6793386.902990908361971 ], [ 326510.999000602867454, 6794103.33899053838104 ], [ 326295.604000611230731, 6794191.209990441799164 ], [ 326374.542000608867966, 6794372.072990472428501 ], [ 326294.303000612533651, 6794612.943990432657301 ], [ 326305.257000612269621, 6794710.409990434534848 ], [ 326353.498000610503368, 6794758.17099045496434 ], [ 326353.587000611063559, 6794927.447990450076759 ], [ 326257.545000615122262, 6795026.168990405276418 ], [ 326148.940000619390048, 6795022.927990355528891 ], [ 326152.768000619194936, 6795058.288990357890725 ], [ 325938.278000627178699, 6794840.757990263402462 ], [ 325903.716000628250185, 6794681.971990253776312 ], [ 325929.70900062675355, 6794565.331990267150104 ], [ 325837.45300063007744, 6794471.806990225799382 ], [ 325739.138000634382479, 6794528.63299017958343 ], [ 325789.902000632486306, 6794583.568990204483271 ], [ 325736.253000634838827, 6794672.616990175098181 ], [ 325775.064000633428805, 6794730.755990193225443 ], [ 325843.84200063085882, 6794740.819990224204957 ], [ 325496.518000647309236, 6795681.216990042477846 ], [ 325301.38000065588858, 6795831.351989947259426 ], [ 325158.396000661770813, 6795878.462989878840744 ], [ 325014.538000668166205, 6796004.594989807344973 ] ] ] ] } },
{ "type": "Feature", "properties": { "id": 59, "gml_id": 28023804, "natcode": "922", "namefin": "Vesilahti", "nameswe": "Vesilahti", "landarea": 301.08, "freshwarea": 52.85, "seawarea": null, "totalarea": 353.93 }, "geometry": { "type": "MultiPolygon", "coordinates": [ [ [ [ 325014.538000668166205, 6796004.594989807344973 ], [ 324744.088000678748358, 6795692.761989686638117 ], [ 324378.412000693671871, 6795424.112989515066147 ], [ 324273.095000697590876, 6795263.289989465847611 ], [ 324242.934000698442105, 6795025.98898945748806 ], [ 323755.881000718742143, 6794623.860989224165678 ], [ 323229.852000741288066, 6794311.550988966599107 ], [ 322976.028000752965454, 6794221.481988840736449 ], [ 322911.90800075547304, 6794169.605988807044923 ], [ 322865.426000757783186, 6794163.726988784968853 ], [ 322845.18900075921556, 6794345.959988770075142 ], [ 322791.556000761745963, 6794355.424988741055131 ], [ 322719.615000765072182, 6794306.736988701857626 ], [ 322761.990000762743875, 6794216.949988729320467 ], [ 322286.604000782943331, 6793558.647988494485617 ], [ 322181.084000788163394, 6793599.051988439634442 ], [ 322125.230000790441409, 6793512.677988411858678 ], [ 322268.001000783522613, 6793464.573988488875329 ], [ 322204.556000785436481, 6793131.445988463237882 ], [ 321880.963000801857561, 6793381.833988282829523 ], [ 321721.048000808805227, 6793115.389988203532994 ], [ 321513.626000819669571, 6793269.234988089650869 ], [ 321096.360000839689746, 6793033.970987864769995 ], [ 321160.679000835865736, 6792849.514987907372415 ], [ 321239.443000831990503, 6792890.543987947516143 ], [ 321256.151000830810517, 6792797.849987958557904 ], [ 321204.76900083333021, 6792770.772987933829427 ], [ 321290.935000828467309, 6792613.27098798379302 ], [ 321362.65700082515832, 6792646.136988023295999 ], [ 321641.226000810682308, 6792474.930988179519773 ], [ 321599.971000812598504, 6792416.301988158375025 ], [ 322242.105000780080445, 6792016.4739885115996 ], [ 321979.091000792512204, 6791969.712988373823464 ], [ 322154.427000783267431, 6791653.581988474354148 ], [ 322116.023000785091426, 6791644.153988456353545 ], [ 322380.112000771565363, 6791364.68698860052973 ], [ 322247.307000777218491, 6791190.064988533966243 ], [ 320378.888000868959352, 6790878.592987522482872 ], [ 320391.219000868150033, 6790816.811987532302737 ], [ 317837.001001007505693, 6790384.139986026100814 ], [ 317276.482001040363684, 6790252.864985674619675 ], [ 317211.119001044426113, 6790293.741985632106662 ], [ 316738.293001073179767, 6790199.477985331788659 ], [ 316779.035001070122235, 6790150.632985358126462 ], [ 316464.407001089421101, 6790086.596985155716538 ], [ 316453.970001090376172, 6790142.734985145740211 ], [ 315762.728001133888029, 6790005.592984690330923 ], [ 315661.94300114014186, 6789983.78498462215066 ], [ 315712.200001136690844, 6789936.289984657429159 ], [ 315667.075001139310189, 6789857.931984630413353 ], [ 314967.151001187041402, 6790207.110984137281775 ], [ 314729.740001203026623, 6790229.825983970426023 ], [ 314701.16500120551791, 6790338.985983945429325 ], [ 314246.202001238008961, 6790569.478983616456389 ], [ 312876.675001335912384, 6790530.127982608042657 ], [ 312873.257001337013207, 6790654.537982602603734 ], [ 312783.794001343543641, 6790649.452982535585761 ], [ 312737.159001346793957, 6790592.622982502914965 ], [ 312097.691001395112835, 6790597.812982009723783 ], [ 312017.592001400771551, 6790505.25298195052892 ], [ 311822.557001416105777, 6790549.678981796838343 ], [ 311793.754001418012194, 6790500.390981776639819 ], [ 307593.313001777103636, 6790341.530978217720985 ], [ 308259.777001719339751, 6790959.328978790901601 ], [ 307850.332001759554259, 6791401.793978398665786 ], [ 307465.372001793817617, 6791093.519978061318398 ], [ 307196.157001820742153, 6791263.132977806963027 ], [ 307237.449001817789394, 6791437.221977834589779 ], [ 306780.199001862842124, 6791559.586977398954332 ], [ 306598.061001879046671, 6791310.142977238632739 ], [ 305624.977001979481429, 6791669.826976277865469 ], [ 305653.80900197965093, 6792128.618976281955838 ], [ 306222.922001925122458, 6792590.959976813755929 ], [ 306174.443001935374923, 6793416.387976724654436 ], [ 305972.038001955486834, 6793336.08797653298825 ], [ 305968.850001957849599, 6793635.321976511739194 ], [ 306169.345001937472261, 6793636.663976709358394 ], [ 306169.672001939616166, 6793948.889976692385972 ], [ 306133.791001944453456, 6794100.165976649150252 ], [ 304893.116002070368268, 6793683.878975433297455 ], [ 304723.610002092202194, 6794189.012975235469639 ], [ 304939.830002069589682, 6794260.568975450471044 ], [ 304877.821002077660523, 6794460.13397537637502 ], [ 302933.136002290295437, 6793833.683973358944058 ], [ 302809.445002309978008, 6794492.789973183535039 ], [ 302122.509002390084788, 6794288.617972433567047 ], [ 302019.477002407133114, 6794852.04997228179127 ], [ 301430.1290024779737, 6794669.461971620097756 ], [ 301371.432002487941645, 6794984.829971532337368 ], [ 300888.01200254750438, 6794813.506970978341997 ], [ 300822.302002558950335, 6795176.144970876164734 ], [ 300346.113002619240433, 6795011.413970320485532 ], [ 300703.912002594035584, 6797451.8229705914855 ], [ 301102.603002571209799, 6800694.351970852352679 ], [ 300085.282002727966756, 6803247.132969457656145 ], [ 297788.895003073674161, 6805221.833966357633471 ], [ 300831.662002671335358, 6808044.652970047667623 ], [ 300915.115002660721075, 6808056.091970147565007 ], [ 300931.473002659156919, 6808129.884970164857805 ], [ 303523.844002328172792, 6807349.517973209731281 ], [ 305503.61200209253002, 6805786.061975399032235 ], [ 308021.115001827827655, 6804616.694977920502424 ], [ 308556.798001776158344, 6804525.654978418722749 ], [ 308726.575001766206697, 6805452.097978529520333 ], [ 308820.266001757176127, 6805422.013978614471853 ], [ 308840.774001755169593, 6805386.950978635810316 ], [ 309032.754001737455837, 6805390.188978808000684 ], [ 309055.764001734904014, 6805353.860978829674423 ], [ 309604.673001683782786, 6805166.812979327514768 ], [ 309952.893001653254032, 6805241.214979625307024 ], [ 310065.57700164464768, 6805462.081979716196656 ], [ 310107.109001640812494, 6805432.894979753531516 ], [ 310168.225001635728404, 6805496.124979803338647 ], [ 310088.427001643460244, 6805598.283979727886617 ], [ 310119.638001640909351, 6805643.192979755811393 ], [ 309998.398001652210951, 6805717.041979647241533 ], [ 309900.659001661697403, 6805892.622979551553726 ], [ 309931.763001659302972, 6805971.811979577876627 ], [ 309847.8020016674418, 6806062.838979499414563 ], [ 309637.916001687000971, 6806176.336979309096932 ], [ 309539.44600169674959, 6806334.917979215271771 ], [ 309340.508001714944839, 6806375.286979036405683 ], [ 309250.912001724005677, 6806499.479978951625526 ], [ 309101.166001738398336, 6806549.730978813953698 ], [ 309119.881001737201586, 6806641.092978828586638 ], [ 309020.688001745962538, 6806606.319978741928935 ], [ 308850.924001762236003, 6806658.051978584378958 ], [ 308933.90600175538566, 6806816.425978652201593 ], [ 307806.652001868351363, 6807670.551977567374706 ], [ 307868.349001862981822, 6807752.763977623544633 ], [ 307619.096001887810417, 6807805.088977383449674 ], [ 307399.953001911228057, 6808025.832977162674069 ], [ 307206.59400193230249, 6808297.845976961776614 ], [ 307728.68500188307371, 6808696.057977443560958 ], [ 307754.792001880356111, 6808655.915977469645441 ], [ 307883.809001867892221, 6808692.735977590084076 ], [ 308042.26900185312843, 6808855.360977731645107 ], [ 308310.316001828177832, 6809007.082977972924709 ], [ 308251.788001834531315, 6809092.303977916017175 ], [ 308557.479001805302687, 6809133.982978198677301 ], [ 308656.454001798469108, 6809504.622978269122541 ], [ 308836.5950017812429, 6809496.936978436075151 ], [ 308229.532001844083425, 6810245.326977838762105 ], [ 308321.024001836194657, 6810410.297977915965021 ], [ 308581.888001810759306, 6810338.459978162311018 ], [ 308833.072001787135378, 6810403.988978387787938 ], [ 308848.354001785803121, 6810372.752978404983878 ], [ 308868.242001784150489, 6810413.383978418074548 ], [ 309024.631001769681461, 6810456.28897855989635 ], [ 309338.535001741605811, 6810677.108978835865855 ], [ 309329.406001743103843, 6810730.912978821434081 ], [ 309410.100001735321712, 6810727.02997889649123 ], [ 309766.579001703648828, 6810850.659979209303856 ], [ 309802.591001701541245, 6811055.804979231208563 ], [ 310314.510001656541135, 6811205.887979672290385 ], [ 310633.694001627096441, 6810982.69697995763272 ], [ 310994.182001596083865, 6811016.837980265729129 ], [ 311320.535001569078304, 6811163.700980533845723 ], [ 311934.627001522807404, 6812066.55698100104928 ], [ 312261.467001494136639, 6811747.521981283091009 ], [ 312867.391001441283152, 6810931.619981799274683 ], [ 313180.534001415828243, 6810751.560982051305473 ], [ 313426.758001394453458, 6810316.379982260987163 ], [ 313684.052001370640937, 6809469.591982491314411 ], [ 314497.197001307271421, 6808868.356983124278486 ], [ 314656.691001295519527, 6808838.396983242593706 ], [ 314942.732001268537715, 6807444.063983502797782 ], [ 315480.729001231491566, 6807577.388983882963657 ], [ 318262.335001039493363, 6804714.172985847108066 ], [ 320875.410000888514332, 6803837.52398744598031 ], [ 321842.310000834579114, 6802618.305988021194935 ], [ 321868.994000831851736, 6802181.529988047666848 ], [ 321315.713000858086161, 6801675.664987754076719 ], [ 321374.320000854786485, 6801575.439987790770829 ], [ 321127.737000867025927, 6801422.826987656764686 ], [ 321081.318000869068783, 6801363.512987631373107 ], [ 321020.942000872339122, 6801387.587987597100437 ], [ 320916.173000877024606, 6801141.612987543456256 ], [ 321108.954000866506249, 6801009.884987655095756 ], [ 321022.763000870123506, 6800779.792987613007426 ], [ 321068.018000867567025, 6800697.94398764334619 ], [ 320944.472000873298384, 6800498.141987577080727 ], [ 320999.229000869905576, 6800378.992987611331046 ], [ 321171.249000860727392, 6800295.921987711451948 ], [ 321224.188000858412124, 6800326.075987740419805 ], [ 321372.832000850292388, 6800235.220987827517092 ], [ 321414.570000847801566, 6800168.346987850964069 ], [ 321319.526000852347352, 6800059.72898780182004 ], [ 321359.393000849639066, 6799837.092987827956676 ], [ 321296.785000852774829, 6799821.289987793192267 ], [ 321343.352000849903561, 6799708.332987822592258 ], [ 321446.308000844554044, 6799625.172987882979214 ], [ 321775.244000827893615, 6799667.360988061875105 ], [ 322191.764000807423145, 6799641.014988288283348 ], [ 322224.785000806092285, 6799697.356988303363323 ], [ 322156.726000809343532, 6799736.822988267987967 ], [ 322475.446000795578584, 6800296.272988425567746 ], [ 322622.911000788677484, 6800325.934988501481712 ], [ 322743.78900078299921, 6800317.967988564632833 ], [ 323249.591000758460723, 6800139.653988833539188 ], [ 323294.600000756094232, 6800032.318988860584795 ], [ 323600.695000741747208, 6799965.060989019460976 ], [ 323579.47500074247364, 6799905.32098900899291 ], [ 323687.419000737369061, 6799849.5509890653193 ], [ 323822.00700073200278, 6800056.192989129573107 ], [ 323862.791000730241649, 6800020.083989148959517 ], [ 323786.299000732717104, 6799720.399989118799567 ], [ 324019.394000721687917, 6799588.185989237390459 ], [ 324376.551000704639591, 6799133.578989425674081 ], [ 324591.221000694669783, 6798932.819989535026252 ], [ 324647.738000692159403, 6798828.527989565394819 ], [ 324707.94700068840757, 6798537.720989600755274 ], [ 324453.4850006980123, 6798033.329989489167929 ], [ 324468.435000697267242, 6797998.402989498339593 ], [ 324745.436000685323961, 6797972.216989632695913 ], [ 324977.485000673797913, 6797413.834989757277071 ], [ 324589.446000688360073, 6796757.175989584997296 ], [ 325014.538000668166205, 6796004.594989807344973 ] ], [ [ 309942.889001685660332, 6810500.053979379124939 ], [ 309968.786001683038194, 6810454.845979406498373 ], [ 309925.16800168651389, 6810390.89597937092185 ], [ 309975.163001681677997, 6810350.269979414530098 ], [ 310015.727001678431407, 6810398.194979448802769 ], [ 310122.384001668426208, 6810318.432979547418654 ], [ 310044.825001674937084, 6810235.12197948154062 ], [ 310034.405001675419044, 6810169.628979476168752 ], [ 309808.22400169679895, 6810356.97497926838696 ], [ 309868.839001691958401, 6810478.9399793157354 ], [ 309942.889001685660332, 6810500.053979379124939 ] ] ] ] } },
{ "type": "Feature", "properties": { "id": 64, "gml_id": 28021538, "natcode": "211", "namefin": "Kangasala", "nameswe": "Kangasala", "landarea": 658.03, "freshwarea": 212.84, "seawarea": null, "totalarea": 870.87 }, "geometry": { "type": "MultiPolygon", "coordinates": [ [ [ [ 391802.691999982576817, 6814673.846999984234571 ], [ 385359.183999982255045, 6818010.546999849379063 ], [ 384208.592999982647598, 6818312.231999818235636 ], [ 381898.969999983208254, 6819488.900999748148024 ], [ 382158.679999982996378, 6816207.392999758943915 ], [ 380112.958999983791728, 6816517.722999691963196 ], [ 380104.325999983877409, 6817311.075999691151083 ], [ 379312.619999984453898, 6817431.158999661915004 ], [ 379037.100999984657392, 6817673.057999651879072 ], [ 378874.042999984812923, 6817626.489999646320939 ], [ 378569.285999984946102, 6817835.493999633938074 ], [ 378765.650999984587543, 6816892.086999640800059 ], [ 378525.510999984806404, 6816617.33399963285774 ], [ 378656.424999984679744, 6816340.156999636441469 ], [ 378611.177999984647613, 6816072.648999636992812 ], [ 378858.491999984427821, 6815988.702999645844102 ], [ 378825.579999984416645, 6815873.390999645926058 ], [ 378918.741999984253198, 6814558.265999650582671 ], [ 376840.812999985879287, 6814903.721999566070735 ], [ 376865.258999985991977, 6814724.866999568417668 ], [ 373735.626999989501201, 6814263.851999423466623 ], [ 373165.867999990237877, 6812859.171999397687614 ], [ 372946.075999990454875, 6813155.847999386489391 ], [ 364108.296000012254808, 6811696.756998797878623 ], [ 363858.73000001325272, 6811612.34899877756834 ], [ 363597.225000014295802, 6811936.819998753257096 ], [ 363378.352000015205704, 6811924.453998732380569 ], [ 362817.265000017709099, 6812175.222998683340847 ], [ 362576.747000018600374, 6812246.872998662292957 ], [ 362590.308000018587336, 6812345.805998663417995 ], [ 362281.222000019974075, 6812581.688998633995652 ], [ 362048.412000020849518, 6812419.390998613089323 ], [ 360675.046000027330592, 6812835.783998479135334 ], [ 360581.536000028077979, 6812898.582998468540609 ], [ 360535.234000028285664, 6812879.550998466089368 ], [ 358928.208000037120655, 6813249.358998294919729 ], [ 357815.43200004362734, 6813310.157998169772327 ], [ 357305.00800004741177, 6814050.902998106554151 ], [ 355945.051000056788325, 6814767.980997936800122 ], [ 355052.201000063272659, 6814610.487997823394835 ], [ 355099.829000062309206, 6813721.362997831776738 ], [ 355130.745000062219333, 6813714.264997838065028 ], [ 355136.676000062085222, 6813509.189997838810086 ], [ 355110.262000062153675, 6813504.036997835151851 ], [ 355138.882000061683357, 6812855.305997841991484 ], [ 355118.008000061672647, 6812825.856997838243842 ], [ 355141.348000061698258, 6812832.77199784386903 ], [ 355175.389000060909893, 6812245.67299785092473 ], [ 355067.629000061773695, 6812172.56099783629179 ], [ 355187.759000060847029, 6812039.610997852869332 ], [ 355130.203000060573686, 6811107.014997849240899 ], [ 355188.417000060260762, 6811099.632997857406735 ], [ 355187.489000060129911, 6811055.53499785810709 ], [ 355129.68000006058719, 6811054.347997850738466 ], [ 355029.966000061191153, 6810685.7609978383407 ], [ 355019.083000060869381, 6810158.46299783885479 ], [ 355055.867000060738064, 6810182.760997842997313 ], [ 355122.566000060061924, 6810157.390997854061425 ], [ 355144.782000060135033, 6810193.21999785490334 ], [ 355184.04100005980581, 6810159.544997861608863 ], [ 355463.466000057640485, 6810241.588997897692025 ], [ 355572.004000057000667, 6810243.323997911065817 ], [ 355592.693000056780875, 6810296.92999791353941 ], [ 355562.745000056922436, 6810305.305997909978032 ], [ 355628.242000056663528, 6810346.299997917376459 ], [ 355801.834000055212528, 6810320.777997938916087 ], [ 355899.839000054402277, 6810180.344997951760888 ], [ 355619.508000056433957, 6810005.324997916817665 ], [ 355603.857000056596007, 6809933.173997915349901 ], [ 355552.201000056811608, 6809907.118997909128666 ], [ 355205.430000059481245, 6810024.280997863970697 ], [ 355054.428000060725026, 6810129.2319978447631 ], [ 355020.654000060982071, 6810137.597997839562595 ], [ 355025.715000060736202, 6810065.214997841976583 ], [ 354999.732000061019789, 6810057.85699783731252 ], [ 354908.755000061704777, 6810134.063997825607657 ], [ 354887.278000061982311, 6810094.243997822515666 ], [ 354914.582000061520375, 6810060.231997826136649 ], [ 354966.203000061272178, 6810009.572997832670808 ], [ 355033.728000060888007, 6810007.76999784167856 ], [ 355044.929000060423277, 6809872.923997843638062 ], [ 354778.65800006291829, 6810190.647997808642685 ], [ 354604.942000064183958, 6810478.613997783511877 ], [ 354350.296000066329725, 6810628.190997748635709 ], [ 354222.124000067240559, 6810509.810997731983662 ], [ 354161.483000067761168, 6810396.995997723191977 ], [ 354109.590000068070367, 6810398.181997716426849 ], [ 354019.014000068767928, 6810206.869997705332935 ], [ 354053.832000068447087, 6810191.355997707694769 ], [ 353782.392000070249196, 6809667.175997676327825 ], [ 353727.30900007073069, 6809655.023997668176889 ], [ 353630.096000071498565, 6809544.479997655376792 ], [ 353436.413000073109288, 6809573.083997626788914 ], [ 353150.851000075577758, 6809715.994997585192323 ], [ 353010.884000076795928, 6809701.454997564665973 ], [ 352909.503000077675097, 6809570.12899755127728 ], [ 352739.176000079023652, 6809550.590997526422143 ], [ 352697.172000079299323, 6809444.723997521214187 ], [ 352485.252000081236474, 6809478.994997491128743 ], [ 352374.537000082083978, 6809217.903997474350035 ], [ 352383.3270000818884, 6809073.606997476890683 ], [ 352335.789000082120765, 6808991.734997470863163 ], [ 352139.315000083879568, 6808932.474997440353036 ], [ 351977.087000085506588, 6808997.975997418165207 ], [ 351857.860000086482614, 6808904.398997400887311 ], [ 351860.827000086253975, 6808683.055997398681939 ], [ 351819.686000086716376, 6808517.019997392781079 ], [ 350298.853000100818463, 6807693.022997160442173 ], [ 350005.100000103819184, 6807660.790997110307217 ], [ 349996.032000103965402, 6807718.036997109651566 ], [ 349927.384000104735605, 6807733.829997096210718 ], [ 349889.523000105109531, 6807792.02299709059298 ], [ 349790.893000106094405, 6807804.26699707377702 ], [ 349673.873000107356347, 6807760.503997054882348 ], [ 349699.478000106988475, 6807629.504997060634196 ], [ 348023.187000125704799, 6807395.825996771454811 ], [ 347859.078000127454288, 6807349.209996741265059 ], [ 347503.525000131805427, 6807242.146996675990522 ], [ 347068.022000136901625, 6806974.169996594078839 ], [ 346102.366000149049796, 6806538.637996411882341 ], [ 344654.414000168791972, 6806062.139996119774878 ], [ 345105.468000161461532, 6805006.118996220640838 ], [ 343822.59300017892383, 6803860.785995960235596 ], [ 343699.299000179860741, 6803075.103995940648019 ], [ 343326.30000018607825, 6803462.120995853096247 ], [ 343323.693000186351128, 6803532.342995853163302 ], [ 343172.94100018881727, 6803705.349995817989111 ], [ 343080.969000190263614, 6803695.579995797015727 ], [ 342785.345000195433386, 6804067.742995725944638 ], [ 343045.168000191566534, 6804389.518995782360435 ], [ 342967.388000193284824, 6804616.671995763666928 ], [ 342480.279000200273003, 6804016.66399565525353 ], [ 342510.554000199888833, 6803989.346995663829148 ], [ 340639.778000229271129, 6801594.19799523614347 ], [ 340612.043000229983591, 6801660.310995231382549 ], [ 340563.379000230808742, 6801671.894995218142867 ], [ 340511.690000231959857, 6801735.97799520380795 ], [ 340574.460000230930746, 6801831.677995217032731 ], [ 340605.700000230281148, 6801808.750995226204395 ], [ 340673.791000228957273, 6801862.451995243318379 ], [ 340782.963000227697194, 6802298.873995264992118 ], [ 340700.992000229540281, 6802545.908995242789388 ], [ 340528.564000232494436, 6802472.020995199680328 ], [ 340459.395000233897008, 6802574.295995180495083 ], [ 340536.557000232685823, 6802687.261995199136436 ], [ 340558.652000232890714, 6803209.250995201058686 ], [ 339510.521000254550017, 6804397.633994916453958 ], [ 337879.006000285211485, 6802335.031994493678212 ], [ 337815.165000286651775, 6802370.239994475618005 ], [ 337667.40400029020384, 6802673.767994429916143 ], [ 338049.757000282814261, 6803159.053994531743228 ], [ 337891.249000286334194, 6803280.634994483552873 ], [ 337812.334000287868548, 6803175.106994464993477 ], [ 337687.459000290662516, 6803271.984994429163635 ], [ 337406.948000297299586, 6803381.834994345903397 ], [ 337279.333000299870037, 6803325.691994308494031 ], [ 336853.09700031124521, 6804453.267994169145823 ], [ 337790.157000290928409, 6804830.893994437530637 ], [ 335431.700000355951488, 6810681.627993645146489 ], [ 334112.119000397680793, 6814346.141993155702949 ], [ 334665.679000384989195, 6815700.416993323713541 ], [ 335642.137000361690298, 6817053.216993624344468 ], [ 336188.605000350857154, 6818774.25499377399683 ], [ 336482.225000343983993, 6819128.140993861481547 ], [ 336427.596000345889479, 6819420.133993837982416 ], [ 336628.220000341068953, 6819473.731993899680674 ], [ 336640.352000341401435, 6819765.571993901394308 ], [ 336680.990000340272672, 6819827.340993911027908 ], [ 336635.849000341608189, 6819914.686993897892535 ], [ 336732.794000339694321, 6820123.93799392413348 ], [ 336632.146000342385378, 6820311.205993890762329 ], [ 336634.460000342398416, 6820373.959993890486658 ], [ 336804.878000338561833, 6820496.612993939779699 ], [ 336851.726000337977894, 6820771.51699395198375 ], [ 336797.040000339387916, 6820831.268993933685124 ], [ 336873.994000337552279, 6820908.818993957713246 ], [ 336890.824000337161124, 6821009.252993959933519 ], [ 336985.702000335091725, 6821147.903993988409638 ], [ 336912.86800033703912, 6821190.839993964880705 ], [ 336948.794000337016769, 6821681.885993969626725 ], [ 336872.896000339067541, 6821804.694993946701288 ], [ 337025.974000336020254, 6822176.377993984147906 ], [ 336997.007000336539932, 6822175.682993980124593 ], [ 336996.167000336630736, 6822226.0559939770028 ], [ 337124.892000334220938, 6822601.250994011759758 ], [ 337148.92800033360254, 6822596.196994018740952 ], [ 337267.898000331304502, 6822913.082994051277637 ], [ 337683.817000321170781, 6822788.542994177900255 ], [ 337785.754000318585895, 6822664.816994207911193 ], [ 337889.419000316411257, 6822658.744994240812957 ], [ 337925.297000315273181, 6822509.14799425099045 ], [ 338043.042000312358141, 6822484.351994287222624 ], [ 338184.737000309454743, 6822653.023994326591492 ], [ 338275.341000307234935, 6822596.177994354628026 ], [ 338307.31600030651316, 6822616.994994365610182 ], [ 338403.228000304079615, 6822449.922994392924011 ], [ 338431.58900030341465, 6822449.618994400836527 ], [ 338465.477000302867964, 6822516.846994408406317 ], [ 338530.305000301334076, 6822442.212994429282844 ], [ 338847.060000294295605, 6822428.709994520060718 ], [ 338972.993000291637145, 6822462.743994556367397 ], [ 338973.03500029159477, 6822519.97399455588311 ], [ 339131.423000288195908, 6822540.722994599491358 ], [ 338856.579000297409948, 6824709.013994496315718 ], [ 341073.543000257108361, 6828856.085995051078498 ], [ 341375.53700025123544, 6828801.831995129585266 ], [ 341405.909000250510871, 6828839.669995138421655 ], [ 341378.332000251044519, 6828864.663995129056275 ], [ 341390.758000251080375, 6829023.545995132997632 ], [ 341289.851000253111124, 6829049.414995105937123 ], [ 341173.78000025532674, 6828956.869995077140629 ], [ 341147.157000256003812, 6828994.910995068959892 ], [ 343617.76400021626614, 6833671.059995630756021 ], [ 345474.086000187089667, 6834846.404996041208506 ], [ 346408.01200017350493, 6835320.644996233284473 ], [ 347270.109000162105076, 6836030.210996404290199 ], [ 348323.932000146596693, 6834880.192996621131897 ], [ 348754.500000140629709, 6834349.237996705807745 ], [ 350079.901000123354606, 6832681.173996955156326 ], [ 350626.516000116360374, 6831834.315997056663036 ], [ 352184.747000099159777, 6830848.984997318126261 ], [ 352369.041000097524375, 6830684.85599734634161 ], [ 352654.567000094160903, 6830346.061997391283512 ], [ 352847.058000092045404, 6829842.434997425414622 ], [ 353157.346000089193694, 6829664.38599747326225 ], [ 353431.161000086227432, 6829396.069997517392039 ], [ 353611.935000084689818, 6829456.341997543349862 ], [ 353620.552000084659085, 6829304.105997544713318 ], [ 353699.595000083674677, 6829178.151997555978596 ], [ 354265.927000078838319, 6829377.601997636258602 ], [ 354077.068000080646016, 6829395.119997612200677 ], [ 354063.55700008070562, 6829350.374997610226274 ], [ 353911.041000081924722, 6829328.856997586786747 ], [ 353881.966000082320534, 6829363.651997582055628 ], [ 353923.925000081886537, 6829448.685997587628663 ], [ 354037.104000080842525, 6829440.106997605413198 ], [ 354155.940000079805031, 6829470.262997622601688 ], [ 354181.87700007960666, 6829505.842997626401484 ], [ 354289.007000078563578, 6829464.349997639656067 ], [ 354372.664000078104436, 6829497.894997651688755 ], [ 354508.454000076861121, 6829469.139997669495642 ], [ 356206.785000063944608, 6830276.052997896447778 ], [ 357109.15800005744677, 6830670.199998008087277 ], [ 357183.942000056849793, 6830709.856998018920422 ], [ 357151.644000057131052, 6830723.55599801428616 ], [ 357161.80500005709473, 6830774.633998014964163 ], [ 357273.943000056431629, 6830729.830998031422496 ], [ 357714.081000053556636, 6830878.399998082779348 ], [ 358324.830000049201772, 6830598.226998155936599 ], [ 358604.393000047304668, 6830398.674998190253973 ], [ 358582.925000047427602, 6830371.538998185656965 ], [ 358724.867000046477187, 6830261.104998204857111 ], [ 358746.005000046279747, 6830287.555998206138611 ], [ 359266.725000042992178, 6829877.627998264506459 ], [ 359126.455000042915344, 6827513.749998259358108 ], [ 361508.492000029131304, 6826262.692998513579369 ], [ 361857.120000027411152, 6826389.157998549751937 ], [ 367395.403000005986542, 6826414.169999015517533 ], [ 370882.756999996374361, 6823639.239999254234135 ], [ 371828.093999994685873, 6824498.850999306887388 ], [ 373498.09099999157479, 6822852.046999401412904 ], [ 373679.487999991164543, 6822313.435999410226941 ], [ 374502.383999989950098, 6822315.979999452829361 ], [ 374582.411999989883043, 6822346.663999454118311 ], [ 375388.448999988962896, 6823428.175999493338168 ], [ 375361.497999989311211, 6823468.850999492220581 ], [ 375394.347999989171512, 6823506.269999491982162 ], [ 375427.679999989108182, 6823480.314999495632946 ], [ 376232.704999988083728, 6824560.677999528124928 ], [ 379648.670999984839, 6823439.441999670118093 ], [ 379540.808999985456467, 6825597.668999662622809 ], [ 380221.665999985183589, 6827896.204999687150121 ], [ 385063.837999983108602, 6826579.341999836266041 ], [ 387200.554999983054586, 6825346.014999890699983 ], [ 390777.873999983072281, 6824551.545999965630472 ], [ 389646.461999982828274, 6820789.09499994572252 ], [ 389738.145999982370995, 6818053.17199994623661 ], [ 391802.691999982576817, 6814673.846999984234571 ] ] ] ] } },
{ "type": "Feature", "properties": { "id": 145, "gml_id": 28023789, "natcode": "536", "namefin": "Nokia", "nameswe": "Nokia", "landarea": 288.34, "freshwarea": 59.5, "seawarea": null, "totalarea": 347.84 }, "geometry": { "type": "MultiPolygon", "coordinates": [ [ [ [ 319633.759001020982396, 6820693.771986210718751 ], [ 318434.676001092535444, 6820315.213985459879041 ], [ 317243.860001170891337, 6820617.524984657764435 ], [ 316050.077001248602755, 6819868.9379838462919 ], [ 314312.53900135710137, 6816212.206982706673443 ], [ 313750.213001397787593, 6815802.721982295624912 ], [ 313764.52100139495451, 6815458.894982319325209 ], [ 313450.579001417150721, 6815045.483982091769576 ], [ 312823.161001466098242, 6814909.58198160212487 ], [ 312492.74300148995826, 6814427.451981357298791 ], [ 312364.697001493594144, 6813189.401981306262314 ], [ 311949.589001525193453, 6812722.477980987168849 ], [ 311934.627001522807404, 6812066.55698100104928 ], [ 311320.535001569078304, 6811163.700980533845723 ], [ 310994.182001596083865, 6811016.837980265729129 ], [ 310633.694001627096441, 6810982.69697995763272 ], [ 310314.510001656541135, 6811205.887979672290385 ], [ 309802.591001701541245, 6811055.804979231208563 ], [ 309766.579001703648828, 6810850.659979209303856 ], [ 309410.100001735321712, 6810727.02997889649123 ], [ 309329.406001743103843, 6810730.912978821434081 ], [ 309338.535001741605811, 6810677.108978835865855 ], [ 309024.631001769681461, 6810456.28897855989635 ], [ 308868.242001784150489, 6810413.383978418074548 ], [ 308848.354001785803121, 6810372.752978404983878 ], [ 308833.072001787135378, 6810403.988978387787938 ], [ 308581.888001810759306, 6810338.459978162311018 ], [ 308321.024001836194657, 6810410.297977915965021 ], [ 308229.532001844083425, 6810245.326977838762105 ], [ 308836.5950017812429, 6809496.936978436075151 ], [ 308656.454001798469108, 6809504.622978269122541 ], [ 308557.479001805302687, 6809133.982978198677301 ], [ 308251.788001834531315, 6809092.303977916017175 ], [ 308310.316001828177832, 6809007.082977972924709 ], [ 308042.26900185312843, 6808855.360977731645107 ], [ 307883.809001867892221, 6808692.735977590084076 ], [ 307754.792001880356111, 6808655.915977469645441 ], [ 307728.68500188307371, 6808696.057977443560958 ], [ 307206.59400193230249, 6808297.845976961776614 ], [ 307399.953001911228057, 6808025.832977162674069 ], [ 307619.096001887810417, 6807805.088977383449674 ], [ 307868.349001862981822, 6807752.763977623544633 ], [ 307806.652001868351363, 6807670.551977567374706 ], [ 308933.90600175538566, 6806816.425978652201593 ], [ 308850.924001762236003, 6806658.051978584378958 ], [ 309020.688001745962538, 6806606.319978741928935 ], [ 309119.881001737201586, 6806641.092978828586638 ], [ 309101.166001738398336, 6806549.730978813953698 ], [ 309250.912001724005677, 6806499.479978951625526 ], [ 309340.508001714944839, 6806375.286979036405683 ], [ 309541.007001696620136, 6806333.851979217492044 ], [ 309637.916001687000971, 6806176.336979309096932 ], [ 309779.698001673852559, 6806112.773979438468814 ], [ 309931.763001659302972, 6805971.811979577876627 ], [ 309900.659001661697403, 6805892.622979551553726 ], [ 309998.398001652210951, 6805717.041979647241533 ], [ 310119.638001640909351, 6805643.192979755811393 ], [ 310088.427001643460244, 6805598.283979727886617 ], [ 310168.225001635728404, 6805496.124979803338647 ], [ 310107.109001640812494, 6805432.894979753531516 ], [ 310065.57700164464768, 6805462.081979716196656 ], [ 309952.893001653254032, 6805241.214979625307024 ], [ 309604.673001683782786, 6805166.812979327514768 ], [ 309055.764001734904014, 6805353.860978829674423 ], [ 309032.754001737455837, 6805390.188978808000684 ], [ 308840.774001755169593, 6805386.950978635810316 ], [ 308820.266001757176127, 6805422.013978614471853 ], [ 308726.575001766206697, 6805452.097978529520333 ], [ 308556.798001776158344, 6804525.654978418722749 ], [ 308021.115001827827655, 6804616.694977920502424 ], [ 305503.61200209253002, 6805786.061975399032235 ], [ 303523.844002328172792, 6807349.517973209731281 ], [ 300931.473002659156919, 6808129.884970164857805 ], [ 300915.115002660721075, 6808056.091970147565007 ], [ 300831.662002671335358, 6808044.652970047667623 ], [ 297790.031003073498141, 6805231.939966359175742 ], [ 298584.499002970813308, 6806656.607967308722436 ], [ 299900.886002801998984, 6808517.326968865469098 ], [ 299806.493002815695945, 6808569.822968745604157 ], [ 299797.62400281795999, 6808685.994968722574413 ], [ 299571.894002851215191, 6808883.636968425475061 ], [ 299513.672002860694192, 6808994.713968342170119 ], [ 299235.197002901928499, 6809200.787967971526086 ], [ 298863.724002963630483, 6810049.606967428699136 ], [ 297935.612003132933751, 6813145.595965963788331 ], [ 298016.321003120741807, 6813172.19496607221663 ], [ 297924.152003135066479, 6813181.642965944483876 ], [ 297856.371003147389274, 6813398.535965835675597 ], [ 297860.643003148725256, 6813596.648965826258063 ], [ 297656.910003185155801, 6814067.856965512037277 ], [ 297552.80600320152007, 6814105.200965367257595 ], [ 296865.418003328843042, 6815870.37796426564455 ], [ 296894.783003325632308, 6816008.358964296989143 ], [ 296790.482003342942335, 6816068.83896414283663 ], [ 296798.984003342455253, 6816133.921964149922132 ], [ 296718.367003356572241, 6816244.725964026525617 ], [ 296826.33000334474491, 6816739.943964142352343 ], [ 295841.127003513742238, 6817361.906962661072612 ], [ 296886.615003350831103, 6818191.076964111067355 ], [ 297819.772003213874996, 6819211.558965343050659 ], [ 297225.786003313725814, 6819763.037964466959238 ], [ 296744.940003388153855, 6819498.843963803723454 ], [ 296394.379003445617855, 6819491.769963295198977 ], [ 296154.651003483566456, 6819339.707962959073484 ], [ 296142.033003486285452, 6819381.985962938517332 ], [ 296013.674003507825546, 6819408.891962747089565 ], [ 295890.423003530362621, 6819557.079962551593781 ], [ 295810.764003544347361, 6819589.674962432123721 ], [ 295802.03600354550872, 6819568.80096242018044 ], [ 295685.223003566323314, 6819647.94196224026382 ], [ 295146.60500366112683, 6819842.743961413390934 ], [ 294813.733003722969443, 6820123.709960881620646 ], [ 294467.343003786285408, 6820273.429960330016911 ], [ 294219.940003833617084, 6820490.603959927335382 ], [ 294194.93000384059269, 6820685.126959869638085 ], [ 294365.009003813844174, 6821017.227960105985403 ], [ 295253.387003658106551, 6821158.839961461722851 ], [ 295260.103003656608053, 6821113.378961476497352 ], [ 295618.134003595390823, 6821172.579962013289332 ], [ 295611.197003597102594, 6821215.569961996749043 ], [ 296644.233003425179049, 6821350.507963509298861 ], [ 296732.753003410471138, 6821330.254963638260961 ], [ 297010.319003363372758, 6821148.71996405068785 ], [ 297078.034003353328444, 6821238.708964142017066 ], [ 297186.923003335949033, 6821248.811964293010533 ], [ 297279.187003323284443, 6821440.409964411519468 ], [ 297561.071003278717399, 6821480.924964805133641 ], [ 297664.090003261342645, 6821387.689964957535267 ], [ 297805.369003240717575, 6821523.706965143792331 ], [ 297941.61200323048979, 6822555.336965252645314 ], [ 298146.389003198943101, 6822600.579965533688664 ], [ 298123.108003203466069, 6822706.006965492852032 ], [ 297956.841003228910267, 6822657.746965264901519 ], [ 298107.635003216913901, 6823759.114965389482677 ], [ 298142.861003239988349, 6826446.366965228691697 ], [ 297636.547003331710584, 6827513.560964436270297 ], [ 297708.422003331943415, 6828597.686964453198016 ], [ 301474.794002751004882, 6826353.235969607718289 ], [ 301406.667002759873867, 6826308.372969527728856 ], [ 301374.552002763724886, 6826238.475969492457807 ], [ 301459.809002751368098, 6826169.706969602964818 ], [ 301478.987002749810927, 6826277.445969620719552 ], [ 301548.03800274070818, 6826307.301969704218209 ], [ 301796.789002706063911, 6826205.524970014579594 ], [ 301844.499002698925324, 6826121.051970078609884 ], [ 301971.531002681818791, 6826116.859970234334469 ], [ 302038.698002671822906, 6826004.950970321893692 ], [ 302055.074002668901812, 6825911.126970347948372 ], [ 302077.737002666690387, 6825990.172970370389521 ], [ 302001.910002678690944, 6826208.060970265418291 ], [ 304340.391002385411412, 6826640.882972961291671 ], [ 304599.092002352466807, 6826418.491973262280226 ], [ 304738.433002336183563, 6826453.984973415732384 ], [ 304837.809002324240282, 6826424.126973525620997 ], [ 304909.929002315970138, 6826463.251973602920771 ], [ 304938.856002313026693, 6826525.169973627664149 ], [ 305103.680002293898724, 6826550.715973808430135 ], [ 305176.594002285040915, 6826496.856973891146481 ], [ 305177.841002284432761, 6826444.952973894774914 ], [ 305266.646002273424529, 6826361.651973995380104 ], [ 305268.959002272691578, 6826308.280974000692368 ], [ 305357.01100226258859, 6826316.880974094383419 ], [ 305340.474002263857983, 6826237.838974081911147 ], [ 305445.869002252235077, 6826279.565974193625152 ], [ 305493.287002246477641, 6826239.592974248342216 ], [ 305533.259002242237329, 6826291.851974286139011 ], [ 305624.064002231927589, 6826314.787974381819367 ], [ 305757.62200221803505, 6826463.397974514402449 ], [ 305905.95600220101187, 6826436.179974673315883 ], [ 306010.588002189528197, 6826504.62597477901727 ], [ 306169.955002171569504, 6826472.992974948137999 ], [ 306307.250002156826667, 6826547.883975088596344 ], [ 306394.233002146531362, 6826464.111975184641778 ], [ 306435.008002142305486, 6826488.12497522495687 ], [ 306448.654002141556703, 6826577.601975234225392 ], [ 306589.065002126793843, 6826701.022975371219218 ], [ 306858.584002096904442, 6826604.126975654624403 ], [ 306838.030002098414116, 6826514.549975636415184 ], [ 306860.71200209541712, 6826449.916975664906204 ], [ 306805.236002101330087, 6826428.294975607655942 ], [ 306800.790002101275604, 6826346.316975606605411 ], [ 306732.438002108188812, 6826277.999975540675223 ], [ 306776.271002102468628, 6826155.919975592754781 ], [ 306931.195002085180022, 6826082.022975754924119 ], [ 307023.685002075566445, 6826107.155975845642388 ], [ 307120.777002064976841, 6826082.9039759458974 ], [ 307203.009002055507153, 6826000.979976034723222 ], [ 307348.661002039792947, 6825980.183976182714105 ], [ 307412.075002032855991, 6825928.590976247563958 ], [ 307564.707002016715705, 6825931.13897639978677 ], [ 307742.077001999947242, 6826171.563976562581956 ], [ 307762.668001998914406, 6826304.125976574607193 ], [ 307817.238001993624493, 6826404.044976622797549 ], [ 308015.038001974520739, 6826574.003976808860898 ], [ 308037.237001973437145, 6826765.565976820886135 ], [ 308165.871001961641014, 6826936.266976937651634 ], [ 310320.579001766163856, 6829369.75197884067893 ], [ 311109.061001707450487, 6831687.278979434631765 ], [ 311200.739001699024811, 6831654.192979518324137 ], [ 311255.678001694031991, 6831669.009979566559196 ], [ 311284.832001690985635, 6831552.41097959689796 ], [ 311367.182001683395356, 6831580.862979668192565 ], [ 311405.384001679893117, 6831543.111979700624943 ], [ 311345.54500168497907, 6831502.284979652613401 ], [ 314393.368001416441984, 6829132.138982265256345 ], [ 315654.765001315157861, 6827929.595983265899122 ], [ 316193.807001272100024, 6827070.315983689390123 ], [ 316754.103001223760657, 6825030.583984162658453 ], [ 317619.303001159452833, 6823732.911984804086387 ], [ 317437.141001168754883, 6823113.329984702169895 ], [ 317419.021001170272939, 6823142.512984687462449 ], [ 317374.673001173068769, 6823128.7669846592471 ], [ 317362.187001173617318, 6823087.975984650664032 ], [ 317340.521001175045967, 6823009.287984637543559 ], [ 317368.671001172740944, 6822996.616984659805894 ], [ 317378.932001171808224, 6822914.640984668396413 ], [ 317263.526001177728176, 6822525.446984604932368 ], [ 318515.96400109649403, 6822464.630985441617668 ], [ 318831.891001074109226, 6821797.7709856685251 ], [ 319401.319001037802082, 6821431.05898604542017 ], [ 319633.759001020982396, 6820693.771986210718751 ] ] ], [ [ [ 309942.889001685660332, 6810500.053979379124939 ], [ 309968.786001683038194, 6810454.845979406498373 ], [ 309925.16800168651389, 6810390.89597937092185 ], [ 309975.163001681677997, 6810350.269979414530098 ], [ 310015.727001678431407, 6810398.194979448802769 ], [ 310122.384001668426208, 6810318.432979547418654 ], [ 310044.825001674937084, 6810235.12197948154062 ], [ 310034.405001675419044, 6810169.628979476168752 ], [ 309808.22400169679895, 6810356.97497926838696 ], [ 309868.839001691958401, 6810478.9399793157354 ], [ 309942.889001685660332, 6810500.053979379124939 ] ] ], [ [ [ 294977.485003743146081, 6824217.406960776075721 ], [ 294977.812003743951209, 6824292.435960768721998 ], [ 295032.64100373419933, 6824287.284960853867233 ], [ 295011.640003737062216, 6824205.060960829257965 ], [ 294977.485003743146081, 6824217.406960776075721 ] ] ] ] } },
{ "type": "Feature", "properties": { "id": 151, "gml_id": 28023744, "natcode": "837", "namefin": "Tampere", "nameswe": "Tammerfors", "landarea": 526.16, "freshwarea": 164.55, "seawarea": null, "totalarea": 690.71 }, "geometry": { "type": "MultiPolygon", "coordinates": [ [ [ [ 316192.010001272312365, 6827073.220983690582216 ], [ 316358.316001260187477, 6826961.542983810417354 ], [ 316429.621001254883595, 6826950.089983863756061 ], [ 316486.74500125052873, 6826869.945983907207847 ], [ 316492.568001249921508, 6826791.041983915492892 ], [ 316572.594001243822277, 6826712.060983973555267 ], [ 316569.362001243745908, 6826643.33398397359997 ], [ 316494.479001248721033, 6826590.045983924530447 ], [ 316482.219001249293797, 6826545.199983915314078 ], [ 316530.775001245667227, 6826443.190983954817057 ], [ 316652.949001237051561, 6826444.528984040953219 ], [ 316711.46400123310741, 6826498.952984080649912 ], [ 316788.558001227909699, 6826506.933984135277569 ], [ 316838.201001223991625, 6826377.157984172925353 ], [ 316928.572001217340585, 6826343.266984240151942 ], [ 316980.572001213440672, 6826230.573984279297292 ], [ 317100.642001205473207, 6826291.852984360419214 ], [ 317325.129001190070994, 6826233.946984518319368 ], [ 317359.395001187338494, 6826139.99398454464972 ], [ 317486.318001178908162, 6826146.931984631344676 ], [ 317514.659001176711172, 6826102.291984654031694 ], [ 317629.96500116889365, 6826058.769984731450677 ], [ 317704.589001163665671, 6825983.248984785750508 ], [ 317683.988001164630987, 6825907.993984775617719 ], [ 317775.868001158640254, 6825900.733984838239849 ], [ 317848.183001153578516, 6825852.466984888538718 ], [ 317888.831001151236705, 6825888.570984914898872 ], [ 317934.516001148207579, 6825882.377984942868352 ], [ 317902.567001149524003, 6825725.565984928049147 ], [ 317979.481001144042239, 6825637.37698498275131 ], [ 318092.47600113687804, 6825632.831985060125589 ], [ 318129.03100113425171, 6825571.970985085703433 ], [ 318115.40300113480771, 6825544.235985076986253 ], [ 318205.280001128907315, 6825493.317985137924552 ], [ 318272.268001123913564, 6825334.016985187307 ], [ 318224.957001126662362, 6825263.9679851597175 ], [ 318400.37900111451745, 6825031.527985285036266 ], [ 319502.369001048966311, 6825748.771985972300172 ], [ 321475.941000936087221, 6826114.402987165376544 ], [ 321747.861000921693631, 6826245.432987318374217 ], [ 321677.085000926279463, 6826400.145987273193896 ], [ 322014.880000908160582, 6826499.505987465381622 ], [ 322082.372000904055312, 6826409.061987505294383 ], [ 322154.809000900597312, 6826444.928987546823919 ], [ 323154.009000852820463, 6827710.864988073706627 ], [ 323235.761000847443938, 6827380.853988128714263 ], [ 323730.249000822019298, 6827254.823988399468362 ], [ 323661.448000824893825, 6827056.424988368526101 ], [ 324229.302000796829816, 6826943.492988673970103 ], [ 324570.874000780517235, 6826990.256988852284849 ], [ 324970.212000762869138, 6827347.746989049017429 ], [ 325805.610000723623671, 6827013.039989477023482 ], [ 327966.045000632642768, 6827198.091990496963263 ], [ 327538.50100067013409, 6834564.223990138620138 ], [ 326508.716000728774816, 6839352.751989533193409 ], [ 326475.324000737629831, 6841903.800989457406104 ], [ 326823.44000072684139, 6843578.069989589974284 ], [ 328468.67400065716356, 6843983.317990364506841 ], [ 329406.239000626141205, 6846501.837990737520158 ], [ 329843.464000612264499, 6847842.864990902133286 ], [ 329109.082000644179061, 6848874.892990552820265 ], [ 328719.6110006646486, 6850546.464990336447954 ], [ 329318.968000644934364, 6852300.3469905750826 ], [ 328876.407000663806684, 6852673.619990363717079 ], [ 329180.858000652457122, 6853072.286990496329963 ], [ 329479.549000640225131, 6853086.699990629218519 ], [ 330370.153000609716401, 6854871.348990989848971 ], [ 331469.92900056950748, 6855405.786991448141634 ], [ 331875.759000561898574, 6858435.142991559579968 ], [ 334465.339000477222726, 6859985.050992547534406 ], [ 336661.297000407008454, 6857626.499993364326656 ], [ 338702.694000350660644, 6856236.743994040414691 ], [ 338679.684000351233408, 6856214.062994035892189 ], [ 338737.331000349775422, 6856165.195994053967297 ], [ 338767.764000348863192, 6856193.727994061075151 ], [ 341807.048000276787207, 6854120.844994956627488 ], [ 345820.889000203460455, 6854665.7039959365502 ], [ 346626.256000190391205, 6854536.216996112838387 ], [ 346494.990000190446153, 6852674.820996101014316 ], [ 347619.359000168624334, 6847783.31799637991935 ], [ 345583.680000197433401, 6845897.272995963692665 ], [ 345988.807000190019608, 6844856.293996062129736 ], [ 346639.202000177465379, 6842378.682996222749352 ], [ 346616.168000175675843, 6840355.00799623504281 ], [ 345800.965000185184181, 6837771.876996085047722 ], [ 346042.249000180861913, 6836963.747996143996716 ], [ 347270.109000162105076, 6836030.210996404290199 ], [ 346408.01200017350493, 6835320.644996233284473 ], [ 345474.086000187089667, 6834846.404996041208506 ], [ 343617.76400021626614, 6833671.059995630756021 ], [ 341147.157000256003812, 6828994.910995068959892 ], [ 341173.78000025532674, 6828956.869995077140629 ], [ 341289.851000253111124, 6829049.414995105937123 ], [ 341390.758000251080375, 6829023.545995132997632 ], [ 341378.332000251044519, 6828864.663995129056275 ], [ 341405.909000250510871, 6828839.669995138421655 ], [ 341375.53700025123544, 6828801.831995129585266 ], [ 341073.543000257108361, 6828856.085995051078498 ], [ 338856.579000297409948, 6824709.013994496315718 ], [ 339131.423000288195908, 6822540.722994599491358 ], [ 338973.03500029159477, 6822519.97399455588311 ], [ 338972.993000291637145, 6822462.743994556367397 ], [ 338847.060000294295605, 6822428.709994520060718 ], [ 338530.305000301334076, 6822442.212994429282844 ], [ 338465.477000302867964, 6822516.846994408406317 ], [ 338431.58900030341465, 6822449.618994400836527 ], [ 338403.228000304079615, 6822449.922994392924011 ], [ 338307.31600030651316, 6822616.994994365610182 ], [ 338275.341000307234935, 6822596.177994354628026 ], [ 338184.737000309454743, 6822653.023994326591492 ], [ 338043.042000312358141, 6822484.351994287222624 ], [ 337925.297000315273181, 6822509.14799425099045 ], [ 337889.419000316411257, 6822658.744994240812957 ], [ 337785.754000318585895, 6822664.816994207911193 ], [ 337683.817000321170781, 6822788.542994177900255 ], [ 337267.898000331304502, 6822913.082994051277637 ], [ 337148.92800033360254, 6822596.196994018740952 ], [ 337124.892000334220938, 6822601.250994011759758 ], [ 336996.167000336630736, 6822226.0559939770028 ], [ 336997.007000336539932, 6822175.682993980124593 ], [ 337025.974000336020254, 6822176.377993984147906 ], [ 336872.896000339067541, 6821804.694993946701288 ], [ 336948.794000337016769, 6821681.885993969626725 ], [ 336912.86800033703912, 6821190.839993964880705 ], [ 336985.702000335091725, 6821147.903993988409638 ], [ 336890.824000337161124, 6821009.252993959933519 ], [ 336873.994000337552279, 6820908.818993957713246 ], [ 336797.040000339387916, 6820831.268993933685124 ], [ 336851.726000337977894, 6820771.51699395198375 ], [ 336804.878000338561833, 6820496.612993939779699 ], [ 336634.460000342398416, 6820373.959993890486658 ], [ 336632.146000342385378, 6820311.205993890762329 ], [ 336732.794000339694321, 6820123.93799392413348 ], [ 336635.849000341608189, 6819914.686993897892535 ], [ 336680.990000340272672, 6819827.340993911027908 ], [ 336640.352000341401435, 6819765.571993901394308 ], [ 336628.220000341068953, 6819473.731993899680674 ], [ 336427.596000345889479, 6819420.133993837982416 ], [ 336482.225000343983993, 6819128.140993861481547 ], [ 336188.605000350857154, 6818774.25499377399683 ], [ 335642.137000361690298, 6817053.216993624344468 ], [ 334665.679000384989195, 6815700.416993323713541 ], [ 334112.119000397680793, 6814346.141993155702949 ], [ 333075.071000427415129, 6814435.397992792539299 ], [ 331426.942000478389673, 6814672.822992181405425 ], [ 331400.880000479170121, 6814636.106992171145976 ], [ 331274.050000483344775, 6814679.433992123231292 ], [ 331136.431000487762503, 6814681.121992070227861 ], [ 331188.318000486236997, 6814708.608992087654769 ], [ 330545.542000507703051, 6814802.079991833306849 ], [ 330333.566000514780171, 6814739.241991750895977 ], [ 330010.979000525723677, 6814720.752991621382535 ], [ 329550.492000541416928, 6814553.597991434857249 ], [ 329111.456000556820072, 6814474.495991255156696 ], [ 328860.658000565716065, 6814345.652991152368486 ], [ 328594.813000575290062, 6814257.029991039074957 ], [ 328330.022000585100614, 6814262.066990923136473 ], [ 328067.530000594968442, 6814195.567990813404322 ], [ 328114.746000593411736, 6814315.78899083007127 ], [ 327882.035000602365471, 6814332.11899072676897 ], [ 328023.828000597888604, 6814715.05199078284204 ], [ 328100.965000595082529, 6814736.064990816637874 ], [ 328225.163000591448508, 6815132.093990861438215 ], [ 327513.392000619089231, 6815227.075990546494722 ], [ 326191.567000673094299, 6815267.873989934101701 ], [ 326049.951000679866411, 6815525.712989861145616 ], [ 325851.488000689772889, 6816029.22598975431174 ], [ 325792.285000695032068, 6817027.1159897018224 ], [ 325867.341000691987574, 6817019.158989737741649 ], [ 325878.418000691628549, 6817105.108989742584527 ], [ 325779.306000695913099, 6817121.708989693783224 ], [ 325730.691000699123833, 6817527.136989663355052 ], [ 325275.846000722725876, 6818624.531989412382245 ], [ 325672.320000705425628, 6818790.142989605665207 ], [ 325559.334000710921828, 6818971.972989544272423 ], [ 325580.288000711239874, 6819396.744989545084536 ], [ 325331.867000723548699, 6819790.171989412978292 ], [ 325212.92200072936248, 6819911.017989349551499 ], [ 325237.686000728281215, 6819979.247989361174405 ], [ 325202.89300073008053, 6820054.586989343166351 ], [ 325656.919000712921843, 6821088.744989543221891 ], [ 324724.414000756223686, 6821487.32298906520009 ], [ 324587.738000761601143, 6821197.997989002615213 ], [ 324084.85000078426674, 6820860.83098875079304 ], [ 322578.090000861557201, 6821620.491987919434905 ], [ 319634.022001021308824, 6820693.010986212641001 ], [ 319401.319001037802082, 6821431.05898604542017 ], [ 318831.891001074109226, 6821797.7709856685251 ], [ 318515.96400109649403, 6822464.630985441617668 ], [ 317263.526001177728176, 6822525.446984604932368 ], [ 317378.932001171808224, 6822914.640984668396413 ], [ 317368.671001172740944, 6822996.616984659805894 ], [ 317340.521001175045967, 6823009.287984637543559 ], [ 317362.187001173617318, 6823087.975984650664032 ], [ 317374.673001173068769, 6823128.7669846592471 ], [ 317419.021001170272939, 6823142.512984687462449 ], [ 317437.141001168754883, 6823113.329984702169895 ], [ 317619.303001159452833, 6823732.911984804086387 ], [ 316754.103001223760657, 6825030.583984162658453 ], [ 316192.010001272312365, 6827073.220983690582216 ] ] ] ] } },
{ "type": "Feature", "properties": { "id": 185, "gml_id": 28023327, "natcode": "562", "namefin": "Orivesi", "nameswe": "Orivesi", "landarea": 799.75, "freshwarea": 160.33, "seawarea": null, "totalarea": 960.08 }, "geometry": { "type": "MultiPolygon", "coordinates": [ [ [ [ 353977.938000100897625, 6857778.958997434936464 ], [ 356601.807000075525139, 6855151.978997826576233 ], [ 358294.599000062793493, 6855917.972998040728271 ], [ 360120.159000048530288, 6851855.464998273178935 ], [ 360586.748000045656227, 6852061.459998323582113 ], [ 362564.896000033360906, 6848511.667998543009162 ], [ 362998.503000030876137, 6848225.920998586341739 ], [ 363261.332000029331539, 6847909.220998611301184 ], [ 363449.560000028461218, 6847815.158998629078269 ], [ 363540.495000027876813, 6847661.419998640194535 ], [ 364574.375000023166649, 6847483.427998734638095 ], [ 365057.68600002117455, 6847535.800998775288463 ], [ 365301.550000020128209, 6847497.955998797900975 ], [ 365347.938000020105392, 6847517.493998801335692 ], [ 365382.994000019971281, 6847587.923998802900314 ], [ 365462.70400001964299, 6847618.645998809486628 ], [ 365980.045000017562415, 6847626.540998853743076 ], [ 366138.157000016944949, 6847571.531998865306377 ], [ 366184.847000016714446, 6847474.571998870000243 ], [ 366148.76000001677312, 6847412.03999886661768 ], [ 366178.984000016702339, 6847355.395998869091272 ], [ 366352.316000015998725, 6847325.942998885177076 ], [ 366551.321000015479513, 6847243.63699890114367 ], [ 367053.209000013419427, 6847244.337998939678073 ], [ 367475.054000012227334, 6847526.289998970925808 ], [ 368941.866000007314142, 6847160.739999079145491 ], [ 369312.080000006244518, 6846899.658999105915427 ], [ 369488.11600000562612, 6846599.524999119341373 ], [ 369809.76200000452809, 6845906.844999139197171 ], [ 370271.418000003206544, 6845102.574999173171818 ], [ 370787.517000001738779, 6844919.424999206326902 ], [ 370830.079000001773238, 6845306.092999208718538 ], [ 371138.887000001210254, 6846287.491999225690961 ], [ 371189.896000001230277, 6846241.200999230146408 ], [ 371243.179000000993256, 6846291.887999231927097 ], [ 371155.835000001359731, 6846342.457999226637185 ], [ 371278.019000001018867, 6846762.782999235205352 ], [ 371280.793000000994653, 6846677.581999233923852 ], [ 371460.004000000772066, 6846720.056999246589839 ], [ 371415.245000000810251, 6846778.167999243363738 ], [ 371395.829000000841916, 6846758.646999240852892 ], [ 371308.624000000942033, 6846818.604999235831201 ], [ 371824.500000000582077, 6848977.367999264970422 ], [ 372918.681999998632818, 6852068.223999322392046 ], [ 374021.589999996998813, 6854181.228999380022287 ], [ 374932.568999995710328, 6856056.272999425418675 ], [ 374866.872999996063299, 6856328.432999421842396 ], [ 374671.478999996674247, 6857878.173999408259988 ], [ 375372.247999995539431, 6859361.264999441802502 ], [ 377251.303999993077014, 6861118.052999530918896 ], [ 380386.065999988641124, 6855472.740999667905271 ], [ 382603.600999987102114, 6854078.719999746419489 ], [ 382576.29599998681806, 6854034.098999746143818 ], [ 382624.485999986936804, 6853970.038999748416245 ], [ 382717.767999987001531, 6853641.36499975156039 ], [ 382712.997999986808281, 6853535.898999753408134 ], [ 382491.741999986814335, 6853187.424999743700027 ], [ 382727.595999986922834, 6853102.07499975245446 ], [ 382704.447999986761715, 6853077.622999750077724 ], [ 382792.602999986615032, 6852840.964999753050506 ], [ 382875.005999986664392, 6852854.962999756447971 ], [ 382861.20299998682458, 6852902.03499975707382 ], [ 383090.593999986478593, 6853097.124999762512743 ], [ 383123.058999986445997, 6853070.504999765194952 ], [ 383055.065999986545648, 6852946.140999761410058 ], [ 383527.571999986190349, 6852282.734999776817858 ], [ 383758.938999986159615, 6852657.935999785549939 ], [ 383859.804999986197799, 6852653.278999787755311 ], [ 383840.248999986215495, 6852414.048999785445631 ], [ 383919.414999985950999, 6852402.513999790884554 ], [ 383865.385999986028764, 6852317.619999787770212 ], [ 384002.808999986096751, 6852118.422999792732298 ], [ 384153.136999985959847, 6852165.454999797046185 ], [ 384380.471999985922594, 6852333.502999804913998 ], [ 384448.978999985847622, 6852282.600999806076288 ], [ 384201.331999985966831, 6852099.478999800048769 ], [ 383990.208999985887203, 6852035.969999791122973 ], [ 385011.117999985464849, 6850500.34299982432276 ], [ 384917.780999985348899, 6850087.052999819628894 ], [ 384426.549999985436443, 6849862.89499980583787 ], [ 384662.457999985374045, 6848746.619999812915921 ], [ 383001.24399998615263, 6849310.546999762766063 ], [ 382559.984999986481853, 6849943.951999748125672 ], [ 382424.265999986382667, 6849846.714999744668603 ], [ 382273.853999986546114, 6850053.786999737843871 ], [ 382413.265999986673705, 6850156.092999744229019 ], [ 382269.727999986615032, 6850359.775999738834798 ], [ 382358.687999986577779, 6850465.758999741636217 ], [ 382180.371999986702576, 6850722.191999736241996 ], [ 382091.380999986839015, 6850702.279999732971191 ], [ 381954.208999986876734, 6850917.781999727711082 ], [ 381643.04999998700805, 6850963.170999717898667 ], [ 381289.287999987485819, 6851299.762999705038965 ], [ 381825.573999987216666, 6851968.568999722599983 ], [ 381511.687999987450894, 6852455.644999710842967 ], [ 381403.535999987507239, 6852322.024999707005918 ], [ 381321.295999987516552, 6851964.928999704308808 ], [ 381191.013999987510033, 6851902.587999698705971 ], [ 380818.366999987920281, 6851848.572999686002731 ], [ 380525.488999988068826, 6851513.612999676726758 ], [ 379980.074999988486525, 6851710.508999655023217 ], [ 379755.729999988689087, 6849931.580999648198485 ], [ 380939.606999986921437, 6846032.346999696455896 ], [ 381011.803999986790586, 6844948.989999700337648 ], [ 380243.860999986995012, 6842149.360999673604965 ], [ 381642.054999985848553, 6840863.233999725431204 ], [ 381577.161999985808507, 6840789.913999722339213 ], [ 381624.553999985917471, 6840741.169999724254012 ], [ 381842.331999985734001, 6840101.338999732397497 ], [ 383156.816999985137954, 6841675.403999773785472 ], [ 386462.798999983991962, 6839646.978999868035316 ], [ 384140.797999984584749, 6838254.769999803975224 ], [ 382507.387999984726775, 6834089.667999757453799 ], [ 382757.864999984332826, 6832677.400999768637121 ], [ 382925.559999984223396, 6832142.776999771595001 ], [ 384108.44399998371955, 6830440.608999808318913 ], [ 385063.837999983108602, 6826579.341999836266041 ], [ 385505.840999983134679, 6827909.952999847941101 ], [ 385706.303999983356334, 6830186.714999853633344 ], [ 386497.208999983209651, 6830213.223999873735011 ], [ 387990.359999983222224, 6831152.807999907061458 ], [ 389443.040999983262736, 6830216.790999939665198 ], [ 389328.45399998332141, 6827552.063999936915934 ], [ 387200.554999983054586, 6825346.014999890699983 ], [ 385063.837999983108602, 6826579.341999836266041 ], [ 380221.665999985183589, 6827896.204999687150121 ], [ 379540.808999985456467, 6825597.668999662622809 ], [ 379648.670999984839, 6823439.441999670118093 ], [ 376232.704999988083728, 6824560.677999528124928 ], [ 375427.679999989108182, 6823480.314999495632946 ], [ 375394.347999989171512, 6823506.269999491982162 ], [ 375361.497999989311211, 6823468.850999492220581 ], [ 375388.448999988962896, 6823428.175999493338168 ], [ 374582.411999989883043, 6822346.663999454118311 ], [ 374502.383999989950098, 6822315.979999452829361 ], [ 373679.487999991164543, 6822313.435999410226941 ], [ 373498.09099999157479, 6822852.046999401412904 ], [ 371828.093999994685873, 6824498.850999306887388 ], [ 370882.756999996374361, 6823639.239999254234135 ], [ 367395.403000005986542, 6826414.169999015517533 ], [ 361857.120000027411152, 6826389.157998549751937 ], [ 361508.492000029131304, 6826262.692998513579369 ], [ 359126.455000042915344, 6827513.749998259358108 ], [ 359266.725000042992178, 6829877.627998264506459 ], [ 358746.005000046279747, 6830287.555998206138611 ], [ 358724.867000046477187, 6830261.104998204857111 ], [ 358582.925000047427602, 6830371.538998185656965 ], [ 358604.393000047304668, 6830398.674998190253973 ], [ 358324.830000049201772, 6830598.226998155936599 ], [ 357714.081000053556636, 6830878.399998082779348 ], [ 357273.943000056431629, 6830729.830998031422496 ], [ 357161.80500005709473, 6830774.633998014964163 ], [ 357151.644000057131052, 6830723.55599801428616 ], [ 357183.942000056849793, 6830709.856998018920422 ], [ 357109.15800005744677, 6830670.199998008087277 ], [ 356206.785000063944608, 6830276.052997896447778 ], [ 354508.454000076861121, 6829469.139997669495642 ], [ 354372.664000078104436, 6829497.894997651688755 ], [ 354289.007000078563578, 6829464.349997639656067 ], [ 354181.87700007960666, 6829505.842997626401484 ], [ 354155.940000079805031, 6829470.262997622601688 ], [ 354037.104000080842525, 6829440.106997605413198 ], [ 353923.925000081886537, 6829448.685997587628663 ], [ 353881.966000082320534, 6829363.651997582055628 ], [ 353911.041000081924722, 6829328.856997586786747 ], [ 354063.55700008070562, 6829350.374997610226274 ], [ 354077.068000080646016, 6829395.119997612200677 ], [ 354265.927000078838319, 6829377.601997636258602 ], [ 353699.595000083674677, 6829178.151997555978596 ], [ 353620.552000084659085, 6829304.105997544713318 ], [ 353611.935000084689818, 6829456.341997543349862 ], [ 353431.161000086227432, 6829396.069997517392039 ], [ 353157.346000089193694, 6829664.38599747326225 ], [ 352847.058000092045404, 6829842.434997425414622 ], [ 352654.567000094160903, 6830346.061997391283512 ], [ 352369.041000097524375, 6830684.85599734634161 ], [ 352184.747000099159777, 6830848.984997318126261 ], [ 350626.516000116360374, 6831834.315997056663036 ], [ 350079.901000123354606, 6832681.173996955156326 ], [ 348754.500000140629709, 6834349.237996705807745 ], [ 348323.932000146596693, 6834880.192996621131897 ], [ 347270.109000162105076, 6836030.210996404290199 ], [ 346042.249000180861913, 6836963.747996143996716 ], [ 345800.965000185184181, 6837771.876996085047722 ], [ 346616.168000175675843, 6840355.00799623504281 ], [ 346639.202000177465379, 6842378.682996222749352 ], [ 345988.807000190019608, 6844856.293996062129736 ], [ 345583.680000197433401, 6845897.272995963692665 ], [ 347619.359000168624334, 6847783.31799637991935 ], [ 346494.990000190446153, 6852674.820996101014316 ], [ 346626.256000190391205, 6854536.216996112838387 ], [ 347999.011000172235072, 6856975.793996377848089 ], [ 353977.938000100897625, 6857778.958997434936464 ] ] ] ] } },
{ "type": "Feature", "properties": { "id": 199, "gml_id": 28023799, "natcode": "604", "namefin": "Pirkkala", "nameswe": "Birkala", "landarea": 81.42, "freshwarea": 22.55, "seawarea": null, "totalarea": 103.97 }, "geometry": { "type": "MultiPolygon", "coordinates": [ [ [ [ 311934.627001522807404, 6812066.55698100104928 ], [ 311949.589001525193453, 6812722.477980987168849 ], [ 312364.697001493594144, 6813189.401981306262314 ], [ 312492.74300148995826, 6814427.451981357298791 ], [ 312823.161001466098242, 6814909.58198160212487 ], [ 313450.579001417150721, 6815045.483982091769576 ], [ 313764.52100139495451, 6815458.894982319325209 ], [ 313750.213001397787593, 6815802.721982295624912 ], [ 314312.53900135710137, 6816212.206982706673443 ], [ 316050.077001248602755, 6819868.9379838462919 ], [ 317243.860001170891337, 6820617.524984657764435 ], [ 318434.676001092535444, 6820315.213985459879041 ], [ 322578.090000861557201, 6821620.491987919434905 ], [ 324084.85000078426674, 6820860.83098875079304 ], [ 324587.738000761601143, 6821197.997989002615213 ], [ 324724.414000756223686, 6821487.32298906520009 ], [ 325656.919000712921843, 6821088.744989543221891 ], [ 325202.89300073008053, 6820054.586989343166351 ], [ 325237.686000728281215, 6819979.247989361174405 ], [ 325212.92200072936248, 6819911.017989349551499 ], [ 325331.867000723548699, 6819790.171989412978292 ], [ 325580.288000711239874, 6819396.744989545084536 ], [ 325559.334000710921828, 6818971.972989544272423 ], [ 325672.320000705425628, 6818790.142989605665207 ], [ 325275.846000722725876, 6818624.531989412382245 ], [ 325730.691000699123833, 6817527.136989663355052 ], [ 325779.306000695913099, 6817121.708989693783224 ], [ 325878.418000691628549, 6817105.108989742584527 ], [ 325867.341000691987574, 6817019.158989737741649 ], [ 325792.285000695032068, 6817027.1159897018224 ], [ 325851.488000689772889, 6816029.22598975431174 ], [ 326049.951000679866411, 6815525.712989861145616 ], [ 326191.567000673094299, 6815267.873989934101701 ], [ 321555.346000883961096, 6812697.219987588003278 ], [ 321296.152000897680409, 6812684.510987441055477 ], [ 321251.787000899668783, 6812584.570987419225276 ], [ 321198.414000902499538, 6812581.262987390160561 ], [ 321201.481000902538653, 6812645.978987388312817 ], [ 321139.304000906064175, 6812677.97298735100776 ], [ 318052.532001084124204, 6812526.436985464766622 ], [ 317226.14600113342749, 6811762.329984942451119 ], [ 317151.288001137436368, 6811616.316984897479415 ], [ 317116.453001140209381, 6811725.645984871312976 ], [ 317080.930001142434776, 6811703.238984847441316 ], [ 317045.756001144531183, 6811640.414984825067222 ], [ 317138.70300113823032, 6811591.57198488805443 ], [ 316920.21700115071144, 6811175.64998475741595 ], [ 316700.194001165684313, 6811299.19798460137099 ], [ 316663.237001167959534, 6811262.89598457980901 ], [ 316827.448001156153623, 6811053.340984698385 ], [ 316758.522001160075888, 6810931.941984656266868 ], [ 316782.79000115848612, 6810911.104984671808779 ], [ 316760.349001159775071, 6810865.176984659396112 ], [ 316806.541001156554557, 6810810.280984692275524 ], [ 316692.260001163755078, 6810736.279984616674483 ], [ 316366.403001182596199, 6810108.606984414160252 ], [ 316301.929001186741516, 6810061.587984371930361 ], [ 316350.373001183615997, 6810075.749984404072165 ], [ 316303.352001186402049, 6809988.459984372369945 ], [ 316260.888001189392526, 6810043.426984344609082 ], [ 316141.087001197098289, 6809965.917984263040125 ], [ 315868.381001215660945, 6809955.732984071597457 ], [ 315931.114001210255083, 6809730.237984125502408 ], [ 316044.748001202940941, 6809768.731984202750027 ], [ 316157.096001194848213, 6809698.585984283126891 ], [ 315703.783001221658196, 6808804.073983997106552 ], [ 315637.577001226367429, 6808845.584983950480819 ], [ 315581.01300122984685, 6808750.238983913324773 ], [ 315590.563001228962094, 6808704.393983921967447 ], [ 315623.495001226721797, 6808694.570983945392072 ], [ 315619.377001226646826, 6808636.140983944758773 ], [ 315440.816001237661112, 6808292.657983828336 ], [ 315399.677001239557285, 6808137.510983806103468 ], [ 315480.729001231491566, 6807577.388983882963657 ], [ 314942.732001268537715, 6807444.063983502797782 ], [ 314656.691001295519527, 6808838.396983242593706 ], [ 314497.197001307271421, 6808868.356983124278486 ], [ 313684.052001370640937, 6809469.591982491314411 ], [ 313426.758001394453458, 6810316.379982260987163 ], [ 313180.534001415828243, 6810751.560982051305473 ], [ 312867.391001441283152, 6810931.619981799274683 ], [ 312261.467001494136639, 6811747.521981283091009 ], [ 311934.627001522807404, 6812066.55698100104928 ] ] ] ] } },
{ "type": "Feature", "properties": { "id": 215, "gml_id": 28023703, "natcode": "980", "namefin": "Ylöjärvi", "nameswe": "Ylöjärvi", "landarea": 1115.75, "freshwarea": 208.21, "seawarea": null, "totalarea": 1323.96 }, "geometry": { "type": "MultiPolygon", "coordinates": [ [ [ [ 306526.779002503550146, 6874055.905972534790635 ], [ 306164.240002560429275, 6875299.715972037054598 ], [ 306287.391002545831725, 6875458.472972170449793 ], [ 306257.05700255028205, 6875541.954972127452493 ], [ 306310.916002544225194, 6875613.279972187243402 ], [ 306385.252002536901273, 6875882.239972257055342 ], [ 306551.800002516130917, 6875938.514972447417676 ], [ 307132.545002448896412, 6876639.81997306458652 ], [ 306921.704002482059877, 6877445.606972774490714 ], [ 307112.586002456722781, 6877277.405973006039858 ], [ 307201.681002445111517, 6877251.717973107472062 ], [ 307257.589002438471653, 6877270.365973168052733 ], [ 307283.108002435765229, 6877332.75897319149226 ], [ 307263.529002441558987, 6877732.151973146013916 ], [ 307348.687002431019209, 6877745.980973239988089 ], [ 307448.651002418366261, 6877689.06597335729748 ], [ 307538.727002407656983, 6877758.979973452165723 ], [ 307719.0810023881495, 6878062.038973635062575 ], [ 307738.174002387095243, 6878204.730973648838699 ], [ 307856.191002373117954, 6878247.966973775997758 ], [ 307890.577002369740512, 6878351.259973810054362 ], [ 307961.89400236151414, 6878411.724973883479834 ], [ 309302.757002218044363, 6880211.522975223138928 ], [ 308933.130002272373531, 6881769.311974740587175 ], [ 310062.255002158810385, 6883796.110975813120604 ], [ 310117.420002170605585, 6886311.575975732877851 ], [ 310096.219002173573244, 6886360.968975708819926 ], [ 310119.58300217112992, 6886399.758975729346275 ], [ 310145.229002175969072, 6887445.003975698724389 ], [ 309561.129002243455034, 6887575.228975079022348 ], [ 308106.153002416773234, 6887549.452973497100174 ], [ 308082.872002424846869, 6888171.254973432980478 ], [ 306556.562002626073081, 6888949.321971624158323 ], [ 306598.599002644070424, 6891659.56997150182724 ], [ 307300.736002554767765, 6891993.289972306229174 ], [ 308740.105002394062467, 6894433.079973790794611 ], [ 310521.92200220056111, 6896577.028975584544241 ], [ 311165.510002137394622, 6897849.173976177349687 ], [ 313738.511001861887053, 6896936.099978730082512 ], [ 318778.676001396204811, 6892564.572983146645129 ], [ 319421.316001345403492, 6892184.387983641587198 ], [ 324642.405000980361365, 6886969.455987274646759 ], [ 326675.837000872590579, 6888024.826988403685391 ], [ 326732.21900086721871, 6887251.881988457404077 ], [ 327028.599000851914752, 6887263.139988616108894 ], [ 327262.561000823625363, 6882065.728988875634968 ], [ 328866.188000747468323, 6882142.38598969206214 ], [ 330375.138000673614442, 6879499.418990472331643 ], [ 330524.098000667116139, 6879326.95399054326117 ], [ 330433.296000670641661, 6879280.673990502953529 ], [ 330767.873000655439682, 6878737.851990667171776 ], [ 330854.999000651761889, 6878732.435990707948804 ], [ 330891.697000650397968, 6878759.651990723796189 ], [ 331123.206000639824197, 6878392.422990837134421 ], [ 331396.140000619692728, 6874640.306991034187376 ], [ 332941.28500056208577, 6875024.523991680704057 ], [ 334488.264000503113493, 6872577.905992340296507 ], [ 334244.239000507164747, 6870678.844992277212441 ], [ 334979.358000474516302, 6866573.507992627099156 ], [ 335978.108000440173782, 6864735.522993018850684 ], [ 336186.329000431462191, 6863327.821993111632764 ], [ 335413.735000452725217, 6862438.793992850929499 ], [ 333385.062000514415558, 6860843.34999212063849 ], [ 333423.892000512918457, 6860732.330992138013244 ], [ 333392.32400051393779, 6860647.879992126487195 ], [ 333473.286000510910526, 6860574.759992160834372 ], [ 333490.837000510306098, 6860512.540992167778313 ], [ 333533.467000508971978, 6860528.518992183730006 ], [ 333479.333000510116108, 6860266.583992168307304 ], [ 333362.883000514179002, 6860238.18799212295562 ], [ 333489.0160005093785, 6860123.516992174088955 ], [ 333534.832000507623889, 6860020.983992194756866 ], [ 333584.306000506039709, 6860023.978992212563753 ], [ 333635.516000504198018, 6859974.827992231585085 ], [ 334465.339000477222726, 6859985.050992547534406 ], [ 331875.759000561898574, 6858435.142991559579968 ], [ 331469.92900056950748, 6855405.786991448141634 ], [ 330370.153000609716401, 6854871.348990989848971 ], [ 329479.549000640225131, 6853086.699990629218519 ], [ 329180.858000652457122, 6853072.286990496329963 ], [ 328876.407000663806684, 6852673.619990363717079 ], [ 329318.968000644934364, 6852300.3469905750826 ], [ 328719.6110006646486, 6850546.464990336447954 ], [ 329109.082000644179061, 6848874.892990552820265 ], [ 329843.464000612264499, 6847842.864990902133286 ], [ 329406.239000626141205, 6846501.837990737520158 ], [ 328468.67400065716356, 6843983.317990364506841 ], [ 326823.44000072684139, 6843578.069989589974284 ], [ 326475.324000737629831, 6841903.800989457406104 ], [ 326508.716000728774816, 6839352.751989533193409 ], [ 327538.50100067013409, 6834564.223990138620138 ], [ 327966.045000632642768, 6827198.091990496963263 ], [ 325805.610000723623671, 6827013.039989477023482 ], [ 324970.212000762869138, 6827347.746989049017429 ], [ 324570.874000780517235, 6826990.256988852284849 ], [ 324229.302000796829816, 6826943.492988673970103 ], [ 323661.448000824893825, 6827056.424988368526101 ], [ 323730.249000822019298, 6827254.823988399468362 ], [ 323235.761000847443938, 6827380.853988128714263 ], [ 323154.009000852820463, 6827710.864988073706627 ], [ 322154.809000900597312, 6826444.928987546823919 ], [ 322082.372000904055312, 6826409.061987505294383 ], [ 322014.880000908160582, 6826499.505987465381622 ], [ 321677.085000926279463, 6826400.145987273193896 ], [ 321747.861000921693631, 6826245.432987318374217 ], [ 321475.941000936087221, 6826114.402987165376544 ], [ 319502.369001048966311, 6825748.771985972300172 ], [ 318400.37900111451745, 6825031.527985285036266 ], [ 318224.957001126662362, 6825263.9679851597175 ], [ 318272.268001123913564, 6825334.016985187307 ], [ 318205.280001128907315, 6825493.317985137924552 ], [ 318115.40300113480771, 6825544.235985076986253 ], [ 318129.03100113425171, 6825571.970985085703433 ], [ 318092.47600113687804, 6825632.831985060125589 ], [ 317979.481001144042239, 6825637.37698498275131 ], [ 317902.567001149524003, 6825725.565984928049147 ], [ 317934.516001148207579, 6825882.377984942868352 ], [ 317888.831001151236705, 6825888.570984914898872 ], [ 317848.183001153578516, 6825852.466984888538718 ], [ 317775.868001158640254, 6825900.733984838239849 ], [ 317683.988001164630987, 6825907.993984775617719 ], [ 317704.589001163665671, 6825983.248984785750508 ], [ 317629.96500116889365, 6826058.769984731450677 ], [ 317514.659001176711172, 6826102.291984654031694 ], [ 317486.318001178908162, 6826146.931984631344676 ], [ 317359.395001187338494, 6826139.99398454464972 ], [ 317325.129001190070994, 6826233.946984518319368 ], [ 317100.642001205473207, 6826291.852984360419214 ], [ 316980.572001213440672, 6826230.573984279297292 ], [ 316928.572001217340585, 6826343.266984240151942 ], [ 316838.201001223991625, 6826377.157984172925353 ], [ 316788.558001227909699, 6826506.933984135277569 ], [ 316711.46400123310741, 6826498.952984080649912 ], [ 316641.234001237724442, 6826441.960984031669796 ], [ 316512.303001246822532, 6826459.370983939617872 ], [ 316482.219001249293797, 6826545.199983915314078 ], [ 316494.479001248721033, 6826590.045983924530447 ], [ 316569.362001243745908, 6826643.33398397359997 ], [ 316572.594001243822277, 6826712.060983973555267 ], [ 316492.568001249921508, 6826791.041983915492892 ], [ 316486.74500125052873, 6826869.945983907207847 ], [ 316429.621001254883595, 6826950.089983863756061 ], [ 316358.316001260187477, 6826961.542983810417354 ], [ 316192.010001272312365, 6827073.220983690582216 ], [ 315654.765001315157861, 6827929.595983265899122 ], [ 314393.368001416441984, 6829132.138982265256345 ], [ 311345.54500168497907, 6831502.284979652613401 ], [ 311405.384001679893117, 6831543.111979700624943 ], [ 311378.426001682528295, 6831577.371979678049684 ], [ 311284.832001690985635, 6831552.41097959689796 ], [ 311255.678001694031991, 6831669.009979566559196 ], [ 311200.739001699024811, 6831654.192979518324137 ], [ 311109.061001707450487, 6831687.278979434631765 ], [ 311142.949001704808325, 6831740.085979463532567 ], [ 311345.954001686652191, 6831781.935979639180005 ], [ 313482.224001507856883, 6832635.954981401562691 ], [ 313631.446001494885422, 6832535.966981526464224 ], [ 313709.171001489157788, 6832671.533981583081186 ], [ 313766.755001486395486, 6832980.413981615565717 ], [ 313875.130001478013583, 6833059.909981698729098 ], [ 313807.862001497647725, 6835681.122981536202133 ], [ 313425.666001540259458, 6837757.056981139816344 ], [ 314209.722001488669775, 6840141.960981674492359 ], [ 313935.993001528666355, 6843341.247981322929263 ], [ 314955.883001456852071, 6845506.111982049420476 ], [ 312015.772001691162586, 6842699.84197972714901 ], [ 311350.138001752551645, 6842743.196979138068855 ], [ 311291.755001758807339, 6842890.23697907757014 ], [ 311242.423001763236243, 6842852.737979034893215 ], [ 311252.889001762901898, 6842903.974979039281607 ], [ 311209.495001766772475, 6842913.76897900365293 ], [ 311235.281001765048131, 6843013.331979021430016 ], [ 311197.167001768830232, 6843068.874978982843459 ], [ 311210.818001768086106, 6843138.658978994004428 ], [ 311130.142001776956022, 6843366.203978911042213 ], [ 311144.432001775945537, 6843412.698978920467198 ], [ 311115.830001778551377, 6843393.210978897288442 ], [ 311064.487001783563755, 6843423.603978848084807 ], [ 310868.732001804048195, 6843691.524978657253087 ], [ 310927.177001799456775, 6843884.211978700011969 ], [ 310990.927001793286763, 6843872.282978760078549 ], [ 311034.065001789480448, 6843905.643978797830641 ], [ 310086.087001885171048, 6844492.209977890364826 ], [ 308580.907002025807742, 6842516.376976534724236 ], [ 307719.842002111661714, 6841615.386975718662143 ], [ 307591.54400212445762, 6841442.82797559350729 ], [ 307612.275002122041769, 6841432.160975616425276 ], [ 305853.626002305012662, 6839216.357973882928491 ], [ 305349.708002369734459, 6839839.445973293855786 ], [ 305247.676002383464947, 6840017.041973167099059 ], [ 304709.000002459448297, 6841239.412972487509251 ], [ 304708.521002460329328, 6841318.260972483083606 ], [ 304797.696002448676154, 6841242.164972586557269 ], [ 304833.670002444065176, 6841242.961972629651427 ], [ 304864.093002440815326, 6841316.413972658105195 ], [ 304813.200002447585575, 6841357.688972598873079 ], [ 304818.242002450511791, 6841791.425972575321794 ], [ 304676.753002468671184, 6841865.846972410567105 ], [ 304668.567002470954321, 6842008.6119723925367 ], [ 304642.338002474280074, 6842018.679972361773252 ], [ 304663.243002472212538, 6842080.754972383379936 ], [ 304643.43500247830525, 6842528.452972332015634 ], [ 301935.602002837928012, 6842602.015969072468579 ], [ 300006.549003117484972, 6842345.050966573879123 ], [ 299828.857003142009489, 6842100.413966350257397 ], [ 299555.165003181667998, 6841871.144965995103121 ], [ 299358.297003211337142, 6841767.918965731747448 ], [ 299294.399003220023587, 6841646.613965653814375 ], [ 299241.303003228036687, 6841629.022965580224991 ], [ 299650.813003177579958, 6842893.690966046415269 ], [ 300245.407003110856749, 6845280.931966675445437 ], [ 300513.738003083970398, 6846614.54496693611145 ], [ 300093.121003153675701, 6847168.957966326735914 ], [ 299981.439003180828877, 6848115.672966103069484 ], [ 300266.320003151951823, 6849598.409966378472745 ], [ 299858.417003223963547, 6850425.949965758249164 ], [ 300628.280003111343831, 6851030.934966762550175 ], [ 301297.964003014145419, 6851336.797967629507184 ], [ 301779.881002952985, 6852321.37996818870306 ], [ 302583.750002842920367, 6852852.002969180233777 ], [ 303333.988002733211033, 6852205.882970156148076 ], [ 303507.123002709879074, 6852206.798970366828144 ], [ 303561.012002702103928, 6852163.636970435269177 ], [ 303662.908002686686814, 6851956.969970574602485 ], [ 303762.932002671936061, 6851831.769970702938735 ], [ 304065.7330026315758, 6851801.308971068821847 ], [ 304231.770002609991934, 6851821.44297126494348 ], [ 304294.698002601508051, 6851794.079971340484917 ], [ 304384.530002589337528, 6851730.936971452087164 ], [ 304500.341002572211437, 6851508.120971600525081 ], [ 304575.160002561984584, 6851431.13697169534862 ], [ 304648.590002552256919, 6851370.390971784479916 ], [ 304817.199002530425787, 6851338.752971982583404 ], [ 304881.902002521441318, 6851262.993972063064575 ], [ 305234.974002478178591, 6851424.752972457557917 ], [ 306750.68100230244454, 6852444.580974084325135 ], [ 307461.847002223425079, 6852875.656974821351469 ], [ 307322.21600224042777, 6853006.239974666386843 ], [ 307115.830002267553937, 6853447.242974421009421 ], [ 307047.202002275560517, 6853439.599974346347153 ], [ 305802.721002427861094, 6853851.35197295434773 ], [ 306768.795002325205132, 6855635.55797391757369 ], [ 306834.289002317469567, 6855642.573973990045488 ], [ 307176.589002276305109, 6855488.505974370054901 ], [ 307404.654002247960307, 6855256.449974625371397 ], [ 307589.513002224790398, 6855006.195974837988615 ], [ 307529.871002231258899, 6854957.904974777251482 ], [ 307644.406002217612695, 6854856.209974903613329 ], [ 307743.718002206820529, 6854923.502975003793836 ], [ 307768.70200220355764, 6854894.203975033015013 ], [ 307765.721002202539239, 6854682.423975041136146 ], [ 307960.335002178151626, 6854366.280975262634456 ], [ 308086.41100216191262, 6854075.151975410059094 ], [ 308107.783002159558237, 6854083.155975433066487 ], [ 308019.323002171237022, 6854326.294975326396525 ], [ 308654.269002112501767, 6855891.359975893981755 ], [ 309749.086002001073211, 6856694.084976946003735 ], [ 311092.244001872255467, 6857818.481978176161647 ], [ 311293.967001855839044, 6858349.963978338986635 ], [ 312779.973001714097336, 6858176.096979692578316 ], [ 312873.916001706151292, 6858291.886979770846665 ], [ 312980.772001696866937, 6858353.422979861497879 ], [ 313426.316001659608446, 6858868.418980224989355 ], [ 315673.191001466708258, 6858351.336982096545398 ], [ 315687.733001465327106, 6858323.853982109576464 ], [ 315978.886001442442648, 6858376.902982336468995 ], [ 316123.965001430246048, 6858233.263982454314828 ], [ 316272.692001418385189, 6858210.175982570275664 ], [ 317068.498001358355395, 6858389.601983168162405 ], [ 320599.576001115143299, 6858758.445985625497997 ], [ 320589.83900111715775, 6859113.628985605202615 ], [ 320723.406001124123577, 6862841.503985573537648 ], [ 320315.295001150574535, 6862856.553985300473869 ], [ 320321.445001150772441, 6862980.668985302560031 ], [ 318412.78200128080789, 6862819.302983989939094 ], [ 317028.774001382756978, 6862742.605982969515026 ], [ 316942.224001390859485, 6863003.478982895612717 ], [ 316672.219001413672231, 6863410.374982672743499 ], [ 317910.962001322652213, 6863941.655983584932983 ], [ 317800.436001333175227, 6864415.85998348519206 ], [ 316617.399001420591958, 6863892.396982612088323 ], [ 315782.817001487768721, 6864066.952981951646507 ], [ 315758.041001496370882, 6865290.483981881290674 ], [ 314258.780001619830728, 6864713.181980675086379 ], [ 314204.110001625376754, 6864851.553980623371899 ], [ 314159.579001631820574, 6865269.959980566985905 ], [ 313272.689001710852608, 6865204.301979803480208 ], [ 313480.406001696712337, 6866001.103979949839413 ], [ 313798.158001668052748, 6866018.651980224996805 ], [ 313755.229001676663756, 6866805.179980151355267 ], [ 313883.676001665065996, 6866811.856980262324214 ], [ 313809.565001679467969, 6868152.932980139739811 ], [ 313360.096001720346976, 6868129.004979747347534 ], [ 313306.098001726204529, 6868239.224979694001377 ], [ 313246.893001731485128, 6868252.018979643471539 ], [ 313232.167001733439974, 6868311.332979627884924 ], [ 313242.638001732819248, 6868407.838979631662369 ], [ 313291.07900172873633, 6868455.797979670576751 ], [ 313351.384001724189147, 6868642.494979715906084 ], [ 313374.965001723496243, 6868879.949979726225138 ], [ 313594.275001704634633, 6869102.256979908794165 ], [ 313645.804001700540539, 6869211.871979949064553 ], [ 313592.477001705439761, 6869204.655979902483523 ], [ 313466.147001718985848, 6869534.868979776278138 ], [ 313503.397001715726219, 6869549.385979808866978 ], [ 313466.111001720593777, 6869816.420979764312506 ], [ 313385.455001728376374, 6869861.097979689948261 ], [ 313328.48200173425721, 6869941.837979636155069 ], [ 313248.038001741748303, 6869963.471979565918446 ], [ 313231.999001743854024, 6870081.357979543507099 ], [ 313093.344001756631769, 6870073.363979419693351 ], [ 313039.109001762000844, 6870103.525979370810091 ], [ 312806.011001782782841, 6869906.173979171551764 ], [ 312538.891001807875, 6869840.524978932924569 ], [ 312487.946001814503688, 6870089.747978873550892 ], [ 312518.638001811457798, 6870102.404978901147842 ], [ 312439.611001820070669, 6870254.604978821240366 ], [ 312375.37100182659924, 6870295.608978761360049 ], [ 312365.663001827662811, 6870336.859978750348091 ], [ 312275.83100183645729, 6870328.170978667214513 ], [ 312208.223001843201928, 6870362.549978600814939 ], [ 312155.509001849335618, 6870506.856978547759354 ], [ 312080.826001856476068, 6870505.899978479370475 ], [ 311902.748001874773763, 6870619.110978307202458 ], [ 311759.326001889188774, 6870642.360978171229362 ], [ 311726.340001892880537, 6870687.634978136047721 ], [ 311563.497001909650862, 6870757.917977980338037 ], [ 311550.90800191136077, 6870811.303977967239916 ], [ 311415.305001924978569, 6870839.048977835103869 ], [ 311271.017001940403134, 6870961.170977690257132 ], [ 311044.790001963905524, 6870998.406977471895516 ], [ 310968.635001972783357, 6871166.659977390430868 ], [ 310936.033001976204105, 6871150.077977360226214 ], [ 310901.413001980166882, 6871202.510977323167026 ], [ 310739.026001997350249, 6871260.044977162033319 ], [ 310681.672002003935631, 6871345.879977101460099 ], [ 310613.379002010915428, 6871319.567977035418153 ], [ 310531.821002020151354, 6871422.498976951465011 ], [ 309199.868002168019302, 6871875.617975579574704 ], [ 306526.779002503550146, 6874055.905972534790635 ] ] ] ] } }
]
}
